[
  {
    "name": "2 Percent Jazz Coffee Inc740 Suite 105Hillside Avenue Victoria",
    "phone": "2505088282",
    "website": "http://www.2Percentjazz.com250-508-8282ACCESSIFORGE",
    "postalCode": "V8T1Z4",
    "chamberId": "saanich-peninsula-chamber"
  },
  {
    "name": "RETROFIT SOLUTIONS LTD",
    "phone": "",
    "website": "http://accessiforge.caActive",
    "postalCode": "V8W 2Z6",
    "chamberId": "saanich-peninsula-chamber"
  },
  {
    "name": "Balance Physiotherapy Studio (Seaport Physiotherapy Inc.)103 -",
    "phone": "2502085942",
    "website": "http://www.activebalancephysio.com250-208-5942AL",
    "postalCode": "V8L 4X3",
    "chamberId": "saanich-peninsula-chamber"
  },
  {
    "name": "Smith",
    "phone": "2502171010",
    "website": "http://www.alsmith.com250-217-1010Amica",
    "postalCode": "V8Z 1R9",
    "chamberId": "saanich-peninsula-chamber"
  },
  {
    "name": "Beechwood Village",
    "phone": "2506550849",
    "website": "http://www.amica.ca250-655-0849AML",
    "postalCode": "V8L 5W6",
    "chamberId": "saanich-peninsula-chamber"
  },
  {
    "name": "Oceanographic Ltd300A -",
    "phone": "2506560771",
    "website": "http://www.amloceanographic.com2506560771Anacortes",
    "postalCode": "V8M 2A5",
    "chamberId": "saanich-peninsula-chamber"
  },
  {
    "name": "Chamber of Commerce",
    "phone": "3602937911",
    "website": "http://www.anacortes.org360-293-7911ARAAZ",
    "postalCode": "",
    "chamberId": "saanich-peninsula-chamber"
  },
  {
    "name": "VISION LTD",
    "phone": "",
    "website": "http://araazvision.caArbutus",
    "postalCode": "V8Z 0B9",
    "chamberId": "saanich-peninsula-chamber"
  },
  {
    "name": "Grove Nursery Ltd",
    "phone": "2506564162",
    "website": "http://www.arbutusgrove.com250-656-4162Ardmore",
    "postalCode": "V8L 5T5",
    "chamberId": "saanich-peninsula-chamber"
  },
  {
    "name": "Golf Course",
    "phone": "2506564621",
    "website": "http://www.ardmoregolfcourse.com2506564621Aria",
    "postalCode": "V8L 5G1",
    "chamberId": "saanich-peninsula-chamber"
  },
  {
    "name": "Sync Ventures Ltd",
    "phone": "9893335323",
    "website": "http://www.abcls.ca250-655-7222Auto-Mobile",
    "postalCode": "V8W 2Z6",
    "chamberId": "saanich-peninsula-chamber"
  },
  {
    "name": "Advantage",
    "phone": "2508124759",
    "website": "http://www.btvic.com1-250-386-0500Barcellona",
    "postalCode": "V8Z 5M9",
    "chamberId": "saanich-peninsula-chamber"
  },
  {
    "name": "Landscapes",
    "phone": "2508575269",
    "website": "http://www.barryachtservices.com250",
    "postalCode": "V8L2R7",
    "chamberId": "saanich-peninsula-chamber"
  },
  {
    "name": "204 3406Barrett Smith Construction Ltd10215 Tsaykum RdNorth Saanich",
    "phone": "2508883323",
    "website": "http://www.bfsconstruction.com/2508883323Beacon",
    "postalCode": "V8L 5T6",
    "chamberId": "saanich-peninsula-chamber"
  },
  {
    "name": "Brewing",
    "phone": "2508825276",
    "website": "http://www.beaconbrewing.ca2508825276Beacon",
    "postalCode": "V8L 3A7",
    "chamberId": "saanich-peninsula-chamber"
  },
  {
    "name": "Community Services",
    "phone": "",
    "website": "http://www.beaconcs.ca250",
    "postalCode": "V8L 4R2",
    "chamberId": "saanich-peninsula-chamber"
  },
  {
    "name": "656 0134Beacon Inn at Sidney9724 Third StSidney",
    "phone": "2506553288",
    "website": "http://www.thebeaconinn.com250-655-3288Beacon",
    "postalCode": "V8L 3A2",
    "chamberId": "saanich-peninsula-chamber"
  },
  {
    "name": "Law Centre104 -",
    "phone": "2506563280",
    "website": "http://www.beaconlaw.ca250-656-3280Beacon",
    "postalCode": "V8L 3A3",
    "chamberId": "saanich-peninsula-chamber"
  },
  {
    "name": "Sign and Apparel#",
    "phone": "",
    "website": "http://beaconsigns.ca250",
    "postalCode": "V8L 1T2",
    "chamberId": "saanich-peninsula-chamber"
  },
  {
    "name": "656 8710Bellrock Benchmarking Inc",
    "phone": "6047893989",
    "website": "http://bellrock.ca604-789-3989Benson",
    "postalCode": "V8W 0B6",
    "chamberId": "saanich-peninsula-chamber"
  },
  {
    "name": "Cabinetry & Millwork2201 Keating X-RoadSaanichtonBCV8M",
    "phone": "7802466422",
    "website": "https://bensoncm.com/7802466422Better",
    "postalCode": "",
    "chamberId": "saanich-peninsula-chamber"
  },
  {
    "name": "Business Bureau of Vancouver Island220 -",
    "phone": "2503866348",
    "website": "http://www.bbb.org/en/ca/bc/victoria250-386-6348BGC",
    "postalCode": "V8V 4A1",
    "chamberId": "saanich-peninsula-chamber"
  },
  {
    "name": "South Vancouver Island4",
    "phone": "2503849133",
    "website": "https://bgcsvi.org/2503849133Bill",
    "postalCode": "V9B 2S4",
    "chamberId": "saanich-peninsula-chamber"
  },
  {
    "name": "Russell & AssociatesUnit",
    "phone": "2505887577",
    "website": "https://nestandnookhousewares.com/(250",
    "postalCode": "V8M 2C1",
    "chamberId": "saanich-peninsula-chamber"
  },
  {
    "name": ")418-5138Blue Jellyfish SUP AdventuresSidneyBC",
    "phone": "9053347360",
    "website": "http://www.bluejellyfishsup.ca905-334-7360Bon",
    "postalCode": "",
    "chamberId": "saanich-peninsula-chamber"
  },
  {
    "name": "Chovy Fishing Charters",
    "phone": "6043062619",
    "website": "https://www.bonchovy.com/fishing-packages/sidney-vancouver-island-fishing-packages.html6043062619BornaTech",
    "postalCode": "",
    "chamberId": "saanich-peninsula-chamber"
  },
  {
    "name": "Solutions Ltd",
    "phone": "9891261628",
    "website": "http://www.bcam.net250-655-3300British",
    "postalCode": "V8W 2Z6",
    "chamberId": "saanich-peninsula-chamber"
  },
  {
    "name": "Columbia Notaries Association201 -",
    "phone": "",
    "website": "http://www.bcnotaryassociation.caBrunel",
    "postalCode": "V8L 1X7",
    "chamberId": "saanich-peninsula-chamber"
  },
  {
    "name": "Technical Solutions LtdSidneyBC",
    "phone": "",
    "website": "https://www.bruneltech.com/(250",
    "postalCode": "",
    "chamberId": "saanich-peninsula-chamber"
  },
  {
    "name": ") 516-9775Buddies Toy Store",
    "phone": "2506557171",
    "website": "http://www.buddiestoys.ca250-655-7171Buds",
    "postalCode": "V8L 1X8",
    "chamberId": "saanich-peninsula-chamber"
  },
  {
    "name": "Cannabis",
    "phone": "",
    "website": "https://www.budscannabisbc.com778",
    "postalCode": "V8M 2A7",
    "chamberId": "saanich-peninsula-chamber"
  },
  {
    "name": "351 2837Business Examiner Victoria1027 Pandora AveVictoria",
    "phone": "8667582684",
    "website": "http://www.businessvi.ca1-866-758-2684",
    "postalCode": "V8V 3P6",
    "chamberId": "saanich-peninsula-chamber"
  },
  {
    "name": "x124Butchart Gardens, The",
    "phone": "2506524422",
    "website": "http://www.butchartgardens.com250-652-4422Caffeinated",
    "postalCode": "V8M 1J8",
    "chamberId": "saanich-peninsula-chamber"
  },
  {
    "name": "Turtle EnterprisesBrentwood BayBC",
    "phone": "7784263323",
    "website": "http://www.caffeinatedturtle.ca778-426-3323Camcor",
    "postalCode": "",
    "chamberId": "saanich-peninsula-chamber"
  },
  {
    "name": "Diving Inc",
    "phone": "2507265522",
    "website": "http://www.camcordivingservices.ca250-726-5522CamEnt",
    "postalCode": "V8L 5X7",
    "chamberId": "saanich-peninsula-chamber"
  },
  {
    "name": "Western bank",
    "phone": "2505800272",
    "website": "https://ccrvictoria.com/250-652-5008Casman",
    "postalCode": "V8W 2E6",
    "chamberId": "saanich-peninsula-chamber"
  },
  {
    "name": "Projects",
    "phone": "7808809874",
    "website": "http://www.casmanproperties.ca7808809874Category",
    "postalCode": "V8Z 3P6",
    "chamberId": "saanich-peninsula-chamber"
  },
  {
    "name": "12 Brewing Inc.Unit C -",
    "phone": "2506529668",
    "website": "http://www.category12beer.com250-652-9668Central",
    "postalCode": "V8M 2A6",
    "chamberId": "saanich-peninsula-chamber"
  },
  {
    "name": "Saanich Optometry1",
    "phone": "2505442210",
    "website": "http://cseyecare.com/250-544-2210Chambers",
    "postalCode": "V8M 2C7",
    "chamberId": "saanich-peninsula-chamber"
  },
  {
    "name": "of Commerce Group Insurance Plan",
    "phone": "2506550707",
    "website": "http://www.chambers.ca250-655-0707Chef",
    "postalCode": "V8L 1X8",
    "chamberId": "saanich-peninsula-chamber"
  },
  {
    "name": "On The Run9781B Second StSidney",
    "phone": "2506553141",
    "website": "http://www.chefontherun.net250-655-3141Chomack",
    "postalCode": "V8L 4P8",
    "chamberId": "saanich-peninsula-chamber"
  },
  {
    "name": "Construction Ltd",
    "phone": "2506554100",
    "website": "http://www.chomack.com250-655-4100Christina",
    "postalCode": "V8L 5A7",
    "chamberId": "saanich-peninsula-chamber"
  },
  {
    "name": "Woodcock",
    "phone": "2505143969",
    "website": "http://circlesmediation.comCitta",
    "postalCode": "",
    "chamberId": "saanich-peninsula-chamber"
  },
  {
    "name": "Meadmore",
    "phone": "2508884561",
    "website": "http://www.justpeachychildcare.ca2508884561CLASSICDRIVE",
    "postalCode": "V8M 1G4",
    "chamberId": "saanich-peninsula-chamber"
  },
  {
    "name": "RESTORATIONS LTD",
    "phone": "",
    "website": "http://restoreclassics.caCloudify",
    "postalCode": "V8W 2Z6",
    "chamberId": "saanich-peninsula-chamber"
  },
  {
    "name": "Nexus Services Ltd",
    "phone": "",
    "website": "http://cloudifynexus.caCo-operators",
    "postalCode": "V8W 2Z6",
    "chamberId": "saanich-peninsula-chamber"
  },
  {
    "name": "- Corcoran Financial Group",
    "phone": "7789770233",
    "website": "https://local.cooperators.ca/corcoran-financial-group-en7789770233Coastal",
    "postalCode": "V9B 3R5",
    "chamberId": "saanich-peninsula-chamber"
  },
  {
    "name": "Heat Pumps",
    "phone": "2506566868",
    "website": "http://www.coastalheatpumps.com250-656-6868Coldwell",
    "postalCode": "V8L5X4",
    "chamberId": "saanich-peninsula-chamber"
  },
  {
    "name": "Banker Oceanside",
    "phone": "2506560911",
    "website": "http://www.cboceanside.com250-656-0911Commodious",
    "postalCode": "V8L 1X9",
    "chamberId": "saanich-peninsula-chamber"
  },
  {
    "name": "Trading Inc",
    "phone": "2506527807",
    "website": "http://commodious.ca2506527807Community",
    "postalCode": "V8L 5V8",
    "chamberId": "saanich-peninsula-chamber"
  },
  {
    "name": "Marine Concepts",
    "phone": "7784320477",
    "website": "http://www.eagalus.ca778-432-0477CommunityPlus",
    "postalCode": "V8W 3Y7",
    "chamberId": "saanich-peninsula-chamber"
  },
  {
    "name": "- Home Healthcare & Nursing",
    "phone": "2506586508",
    "website": "http://communitypluscare.ca2506586508CONVERA",
    "postalCode": "V9C4A7",
    "chamberId": "saanich-peninsula-chamber"
  },
  {
    "name": "FINANCIAL LTD",
    "phone": "",
    "website": "http://converafinancial.caCordova",
    "postalCode": "V8Z 0B9",
    "chamberId": "saanich-peninsula-chamber"
  },
  {
    "name": "Bay Optometry",
    "phone": "7785873937",
    "website": "http://www.cordovabayoptometry.ca778-587-3937Cosmos",
    "postalCode": "V8Y2L3",
    "chamberId": "saanich-peninsula-chamber"
  },
  {
    "name": "Energy Consulting IncSaanichtonBC,CA778-426-2640Country Bee Honey Farm",
    "phone": "7784262640",
    "website": "http://www.countrybeehoney.ca250",
    "postalCode": "V8M 1W8",
    "chamberId": "saanich-peninsula-chamber"
  },
  {
    "name": "580 0263Cube Project ManagementPO 612 SaanichtonSaanichtonBCV8M,CA2508931011Cultvest Apparel Ltd",
    "phone": "2508931011",
    "website": "http://www.davisonandco.ca2503889667de",
    "postalCode": "V8W 2Z6",
    "chamberId": "saanich-peninsula-chamber"
  },
  {
    "name": "Vine Vineyards6181B Old West Saanich RdSaanichton",
    "phone": "2506656983",
    "website": "http://www.devinevineyards.ca250-665-6983Departures",
    "postalCode": "V8M 1W8",
    "chamberId": "saanich-peninsula-chamber"
  },
  {
    "name": "Travel",
    "phone": "2509999800",
    "website": "http://www.departurestravel.com250-999-9800Designer",
    "postalCode": "V8L 1X5",
    "chamberId": "saanich-peninsula-chamber"
  },
  {
    "name": "ShearsNorth SaanichBC",
    "phone": "",
    "website": "http://www.designershears.com250",
    "postalCode": "",
    "chamberId": "saanich-peninsula-chamber"
  },
  {
    "name": "216 8305Destination Greater VictoriaVictoriaBC",
    "phone": "2504146975",
    "website": "http://www.tourismvictoria.com250-414-6975DFH",
    "postalCode": "",
    "chamberId": "saanich-peninsula-chamber"
  },
  {
    "name": "Real Estate Ltd",
    "phone": "2506560131",
    "website": "http://www.centralsaanich.ca250-652-4444Donovan's",
    "postalCode": "V8L 0C3",
    "chamberId": "saanich-peninsula-chamber"
  },
  {
    "name": "Piano Service",
    "phone": "2507446645",
    "website": "http://Donovanspianoservice.ca250-744-6645Dusanj",
    "postalCode": "V8M 1L6",
    "chamberId": "saanich-peninsula-chamber"
  },
  {
    "name": "& Wirk Chartered Professional Accountants",
    "phone": "2505088837",
    "website": "http://www.dusanjwirk.com/2505088837ECOSMART",
    "postalCode": "V8X 5J2",
    "chamberId": "saanich-peninsula-chamber"
  },
  {
    "name": "KITCHEN SOLUTIONS LTD",
    "phone": "",
    "website": "http://elevatemaster.ca",
    "postalCode": "V8W 2Z6",
    "chamberId": "saanich-peninsula-chamber"
  },
  {
    "name": "2 Percent Jazz Coffee Inc",
    "phone": "",
    "website": "",
    "postalCode": "",
    "chamberId": "saanich-peninsula-chamber"
  },
  {
    "name": "ACCESSIFORGE RETROFIT SOLUTIONS LTD",
    "phone": "",
    "website": "http://accessiforge.ca",
    "postalCode": "V8W 2Z6",
    "chamberId": "saanich-peninsula-chamber"
  },
  {
    "name": "Active Balance Physiotherapy Studio (Seaport Physiotherapy Inc.)103 -",
    "phone": "2502085942",
    "website": "http://www.activebalancephysio.com250-208-5942",
    "postalCode": "V8L 4X3",
    "chamberId": "saanich-peninsula-chamber"
  },
  {
    "name": "Active Balance Physiotherapy Studio (Seaport Physiotherapy Inc.)",
    "phone": "",
    "website": "",
    "postalCode": "",
    "chamberId": "saanich-peninsula-chamber"
  },
  {
    "name": "AL Smith",
    "phone": "2502171010",
    "website": "http://www.alsmith.com250-217-1010",
    "postalCode": "V8Z 1R9",
    "chamberId": "saanich-peninsula-chamber"
  },
  {
    "name": "Amica Beechwood Village",
    "phone": "2506550849",
    "website": "http://www.amica.ca250-655-0849",
    "postalCode": "V8L 5W6",
    "chamberId": "saanich-peninsula-chamber"
  },
  {
    "name": "AML Oceanographic Ltd300A -",
    "phone": "2506560771",
    "website": "http://www.amloceanographic.com2506560771",
    "postalCode": "V8M 2A5",
    "chamberId": "saanich-peninsula-chamber"
  },
  {
    "name": "AML Oceanographic Ltd",
    "phone": "",
    "website": "",
    "postalCode": "",
    "chamberId": "saanich-peninsula-chamber"
  },
  {
    "name": "Anacortes Chamber of Commerce",
    "phone": "3602937911",
    "website": "http://www.anacortes.org360-293-7911",
    "postalCode": "",
    "chamberId": "saanich-peninsula-chamber"
  },
  {
    "name": "ARAAZ VISION LTD",
    "phone": "",
    "website": "http://araazvision.ca",
    "postalCode": "V8Z 0B9",
    "chamberId": "saanich-peninsula-chamber"
  },
  {
    "name": "Arbutus Grove Nursery Ltd",
    "phone": "2506564162",
    "website": "http://www.arbutusgrove.com250-656-4162",
    "postalCode": "V8L 5T5",
    "chamberId": "saanich-peninsula-chamber"
  },
  {
    "name": "Ardmore Golf Course",
    "phone": "2506564621",
    "website": "http://www.ardmoregolfcourse.com2506564621",
    "postalCode": "V8L 5G1",
    "chamberId": "saanich-peninsula-chamber"
  },
  {
    "name": "Aria Sync Ventures Ltd",
    "phone": "9893335323",
    "website": "",
    "postalCode": "V8W 2Z6",
    "chamberId": "saanich-peninsula-chamber"
  },
  {
    "name": "Association of B.C Land Surveyors301 -",
    "phone": "2506557222",
    "website": "http://www.abcls.ca250-655-7222",
    "postalCode": "V8L 4M9",
    "chamberId": "saanich-peninsula-chamber"
  },
  {
    "name": "Association of B.C Land Surveyors",
    "phone": "",
    "website": "",
    "postalCode": "",
    "chamberId": "saanich-peninsula-chamber"
  },
  {
    "name": "Auto-Mobile Advantage",
    "phone": "2508124759",
    "website": "",
    "postalCode": "V8Z 5M9",
    "chamberId": "saanich-peninsula-chamber"
  },
  {
    "name": "Baker Tilly Victoria Ltd.Suite 7 -",
    "phone": "2503860500",
    "website": "http://www.btvic.com1-250-386-0500",
    "postalCode": "V8L 2X2",
    "chamberId": "saanich-peninsula-chamber"
  },
  {
    "name": "Baker Tilly Victoria Ltd",
    "phone": "",
    "website": "",
    "postalCode": "",
    "chamberId": "saanich-peninsula-chamber"
  },
  {
    "name": "Barcellona Landscapes",
    "phone": "2508575269",
    "website": "",
    "postalCode": "V8L2R7",
    "chamberId": "saanich-peninsula-chamber"
  },
  {
    "name": "Barr Yacht Services Ltd",
    "phone": "2502043406",
    "website": "http://www.barryachtservices.com250",
    "postalCode": "V8L 2P6",
    "chamberId": "saanich-peninsula-chamber"
  },
  {
    "name": "Barrett Smith Construction Ltd",
    "phone": "2508883323",
    "website": "http://www.bfsconstruction.com/2508883323",
    "postalCode": "V8L 5T6",
    "chamberId": "saanich-peninsula-chamber"
  },
  {
    "name": "Beacon Brewing",
    "phone": "2508825276",
    "website": "http://www.beaconbrewing.ca2508825276",
    "postalCode": "V8L 3A7",
    "chamberId": "saanich-peninsula-chamber"
  },
  {
    "name": "Beacon Community Services",
    "phone": "2506560134",
    "website": "http://www.beaconcs.ca250",
    "postalCode": "V8L 4R2",
    "chamberId": "saanich-peninsula-chamber"
  },
  {
    "name": "Beacon Inn at",
    "phone": "2506553288",
    "website": "http://www.thebeaconinn.com250-655-3288",
    "postalCode": "V8L 3A2",
    "chamberId": "saanich-peninsula-chamber"
  },
  {
    "name": "Beacon Law Centre104 -",
    "phone": "2506563280",
    "website": "http://www.beaconlaw.ca250-656-3280",
    "postalCode": "V8L 3A3",
    "chamberId": "saanich-peninsula-chamber"
  },
  {
    "name": "Beacon Law Centre",
    "phone": "",
    "website": "",
    "postalCode": "",
    "chamberId": "saanich-peninsula-chamber"
  },
  {
    "name": "Beacon Sign and Apparel#",
    "phone": "2506568710",
    "website": "http://beaconsigns.ca250",
    "postalCode": "V8L 1T2",
    "chamberId": "saanich-peninsula-chamber"
  },
  {
    "name": "Bellrock Benchmarking Inc",
    "phone": "6047893989",
    "website": "http://bellrock.ca604-789-3989",
    "postalCode": "V8W 0B6",
    "chamberId": "saanich-peninsula-chamber"
  },
  {
    "name": "Benson Cabinetry & Millwork2201 Keating X-RoadSaanichtonBCV8M",
    "phone": "7802466422",
    "website": "https://bensoncm.com/7802466422",
    "postalCode": "",
    "chamberId": "saanich-peninsula-chamber"
  },
  {
    "name": "Benson Cabinetry & Millwork",
    "phone": "",
    "website": "",
    "postalCode": "",
    "chamberId": "saanich-peninsula-chamber"
  },
  {
    "name": "Better Business Bureau of Vancouver Island220 -",
    "phone": "2503866348",
    "website": "http://www.bbb.org/en/ca/bc/victoria250-386-6348",
    "postalCode": "V8V 4A1",
    "chamberId": "saanich-peninsula-chamber"
  },
  {
    "name": "Better Business Bureau of Vancouver Island",
    "phone": "",
    "website": "",
    "postalCode": "",
    "chamberId": "saanich-peninsula-chamber"
  },
  {
    "name": "BGC South Vancouver Island4",
    "phone": "2503849133",
    "website": "https://bgcsvi.org/2503849133",
    "postalCode": "V9B 2S4",
    "chamberId": "saanich-peninsula-chamber"
  },
  {
    "name": "BGC South Vancouver Island",
    "phone": "",
    "website": "",
    "postalCode": "",
    "chamberId": "saanich-peninsula-chamber"
  },
  {
    "name": "Bill Russell & AssociatesUnit",
    "phone": "2505887577",
    "website": "",
    "postalCode": "V8M 2C1",
    "chamberId": "saanich-peninsula-chamber"
  },
  {
    "name": "Bill Russell & Associates",
    "phone": "",
    "website": "",
    "postalCode": "",
    "chamberId": "saanich-peninsula-chamber"
  },
  {
    "name": "Bliss Boutique / Nest & Nook",
    "phone": "2504185138",
    "website": "https://nestandnookhousewares.com/(250",
    "postalCode": "V8L1W9",
    "chamberId": "saanich-peninsula-chamber"
  },
  {
    "name": "Blue Jellyfish SUP AdventuresSidneyBC",
    "phone": "9053347360",
    "website": "http://www.bluejellyfishsup.ca905-334-7360",
    "postalCode": "",
    "chamberId": "saanich-peninsula-chamber"
  },
  {
    "name": "Blue Jellyfish SUP Adventures",
    "phone": "",
    "website": "",
    "postalCode": "",
    "chamberId": "saanich-peninsula-chamber"
  },
  {
    "name": "Bon Chovy Fishing Charters",
    "phone": "6043062619",
    "website": "https://www.bonchovy.com/fishing-packages/sidney-vancouver-island-fishing-packages.html6043062619",
    "postalCode": "",
    "chamberId": "saanich-peninsula-chamber"
  },
  {
    "name": "BornaTech Solutions Ltd",
    "phone": "9891261628",
    "website": "",
    "postalCode": "V8W 2Z6",
    "chamberId": "saanich-peninsula-chamber"
  },
  {
    "name": "Brackenhurst FarmNorth SaanichBC",
    "phone": "",
    "website": "",
    "postalCode": "",
    "chamberId": "saanich-peninsula-chamber"
  },
  {
    "name": "Brackenhurst Farm",
    "phone": "",
    "website": "",
    "postalCode": "",
    "chamberId": "saanich-peninsula-chamber"
  },
  {
    "name": "British Columbia Aviation Museum",
    "phone": "2506553300",
    "website": "http://www.bcam.net250-655-3300",
    "postalCode": "V8L 5V5",
    "chamberId": "saanich-peninsula-chamber"
  },
  {
    "name": "British Columbia Notaries Association201 -",
    "phone": "",
    "website": "http://www.bcnotaryassociation.ca",
    "postalCode": "V8L 1X7",
    "chamberId": "saanich-peninsula-chamber"
  },
  {
    "name": "British Columbia Notaries Association",
    "phone": "",
    "website": "",
    "postalCode": "",
    "chamberId": "saanich-peninsula-chamber"
  },
  {
    "name": "Brunel Technical Solutions LtdSidneyBC",
    "phone": "2505169775",
    "website": "https://www.bruneltech.com/(250",
    "postalCode": "",
    "chamberId": "saanich-peninsula-chamber"
  },
  {
    "name": "Brunel Technical Solutions Ltd",
    "phone": "",
    "website": "",
    "postalCode": "",
    "chamberId": "saanich-peninsula-chamber"
  },
  {
    "name": "Buddies Toy Store",
    "phone": "2506557171",
    "website": "http://www.buddiestoys.ca250-655-7171",
    "postalCode": "V8L 1X8",
    "chamberId": "saanich-peninsula-chamber"
  },
  {
    "name": "Buds Cannabis",
    "phone": "7783512837",
    "website": "https://www.budscannabisbc.com778",
    "postalCode": "V8M 2A7",
    "chamberId": "saanich-peninsula-chamber"
  },
  {
    "name": "Business Examiner",
    "phone": "8667582684",
    "website": "http://www.businessvi.ca1-866-758-2684",
    "postalCode": "V8V 3P6",
    "chamberId": "saanich-peninsula-chamber"
  },
  {
    "name": "Butchart Gardens, The",
    "phone": "2506524422",
    "website": "http://www.butchartgardens.com250-652-4422",
    "postalCode": "V8M 1J8",
    "chamberId": "saanich-peninsula-chamber"
  },
  {
    "name": "Caffeinated Turtle EnterprisesBrentwood BayBC",
    "phone": "7784263323",
    "website": "http://www.caffeinatedturtle.ca778-426-3323",
    "postalCode": "",
    "chamberId": "saanich-peninsula-chamber"
  },
  {
    "name": "Caffeinated Turtle Enterprises",
    "phone": "",
    "website": "",
    "postalCode": "",
    "chamberId": "saanich-peninsula-chamber"
  },
  {
    "name": "Camcor Diving Inc",
    "phone": "2507265522",
    "website": "http://www.camcordivingservices.ca250-726-5522",
    "postalCode": "V8L 5X7",
    "chamberId": "saanich-peninsula-chamber"
  },
  {
    "name": "CamEnt Ltd",
    "phone": "7786781270",
    "website": "http://www.drabtofabwithfibo.ca7786781270",
    "postalCode": "V8M 1J9",
    "chamberId": "saanich-peninsula-chamber"
  },
  {
    "name": "Canadian Western bank",
    "phone": "2505800272",
    "website": "",
    "postalCode": "V8W 2E6",
    "chamberId": "saanich-peninsula-chamber"
  },
  {
    "name": "Capital City Recycling Ltd.PO Box 21Saanichton",
    "phone": "2506525008",
    "website": "https://ccrvictoria.com/250-652-5008",
    "postalCode": "V8M 2C3",
    "chamberId": "saanich-peninsula-chamber"
  },
  {
    "name": "Capital City Recycling Ltd",
    "phone": "",
    "website": "",
    "postalCode": "",
    "chamberId": "saanich-peninsula-chamber"
  },
  {
    "name": "Casman Projects",
    "phone": "7808809874",
    "website": "http://www.casmanproperties.ca7808809874",
    "postalCode": "V8Z 3P6",
    "chamberId": "saanich-peninsula-chamber"
  },
  {
    "name": "Category 12 Brewing Inc.Unit C -",
    "phone": "2506529668",
    "website": "http://www.category12beer.com250-652-9668",
    "postalCode": "V8M 2A6",
    "chamberId": "saanich-peninsula-chamber"
  },
  {
    "name": "Category 12 Brewing Inc",
    "phone": "",
    "website": "",
    "postalCode": "",
    "chamberId": "saanich-peninsula-chamber"
  },
  {
    "name": "Central Saanich Optometry1",
    "phone": "2505442210",
    "website": "http://cseyecare.com/250-544-2210",
    "postalCode": "V8M 2C7",
    "chamberId": "saanich-peninsula-chamber"
  },
  {
    "name": "Central Saanich Optometry",
    "phone": "",
    "website": "",
    "postalCode": "",
    "chamberId": "saanich-peninsula-chamber"
  },
  {
    "name": "Chambers of Commerce Group Insurance Plan",
    "phone": "2506550707",
    "website": "http://www.chambers.ca250-655-0707",
    "postalCode": "V8L 1X8",
    "chamberId": "saanich-peninsula-chamber"
  },
  {
    "name": "Chef On The Run9781B Second StSidney",
    "phone": "2506553141",
    "website": "http://www.chefontherun.net250-655-3141",
    "postalCode": "V8L 4P8",
    "chamberId": "saanich-peninsula-chamber"
  },
  {
    "name": "Chef On The Run",
    "phone": "",
    "website": "",
    "postalCode": "",
    "chamberId": "saanich-peninsula-chamber"
  },
  {
    "name": "Chomack Construction Ltd",
    "phone": "2506554100",
    "website": "http://www.chomack.com250-655-4100",
    "postalCode": "V8L 5A7",
    "chamberId": "saanich-peninsula-chamber"
  },
  {
    "name": "Christina Woodcock",
    "phone": "2505143969",
    "website": "",
    "postalCode": "",
    "chamberId": "saanich-peninsula-chamber"
  },
  {
    "name": "Circles MediationNorth SaanichBC",
    "phone": "",
    "website": "http://circlesmediation.com",
    "postalCode": "",
    "chamberId": "saanich-peninsula-chamber"
  },
  {
    "name": "Circles Mediation",
    "phone": "",
    "website": "",
    "postalCode": "",
    "chamberId": "saanich-peninsula-chamber"
  },
  {
    "name": "Citta Construction Ltd",
    "phone": "2508837816",
    "website": "http://www.cittagroup.com2508837816",
    "postalCode": "V8M 1X6",
    "chamberId": "saanich-peninsula-chamber"
  },
  {
    "name": "Claire Meadmore",
    "phone": "2508884561",
    "website": "http://www.justpeachychildcare.ca2508884561",
    "postalCode": "V8M 1G4",
    "chamberId": "saanich-peninsula-chamber"
  },
  {
    "name": "CLASSICDRIVE RESTORATIONS LTD",
    "phone": "",
    "website": "http://restoreclassics.ca",
    "postalCode": "V8W 2Z6",
    "chamberId": "saanich-peninsula-chamber"
  },
  {
    "name": "Cloudify Nexus Services Ltd",
    "phone": "",
    "website": "http://cloudifynexus.ca",
    "postalCode": "V8W 2Z6",
    "chamberId": "saanich-peninsula-chamber"
  },
  {
    "name": "Co-operators - Corcoran Financial Group",
    "phone": "7789770233",
    "website": "https://local.cooperators.ca/corcoran-financial-group-en7789770233",
    "postalCode": "V9B 3R5",
    "chamberId": "saanich-peninsula-chamber"
  },
  {
    "name": "Coastal Heat Pumps",
    "phone": "2506566868",
    "website": "http://www.coastalheatpumps.com250-656-6868",
    "postalCode": "V8L5X4",
    "chamberId": "saanich-peninsula-chamber"
  },
  {
    "name": "Coldwell Banker Oceanside",
    "phone": "2506560911",
    "website": "http://www.cboceanside.com250-656-0911",
    "postalCode": "V8L 1X9",
    "chamberId": "saanich-peninsula-chamber"
  },
  {
    "name": "Commodious Trading Inc",
    "phone": "2506527807",
    "website": "http://commodious.ca2506527807",
    "postalCode": "V8L 5V8",
    "chamberId": "saanich-peninsula-chamber"
  },
  {
    "name": "Community Marine Concepts",
    "phone": "7784320477",
    "website": "http://www.eagalus.ca778-432-0477",
    "postalCode": "V8W 3Y7",
    "chamberId": "saanich-peninsula-chamber"
  },
  {
    "name": "CommunityPlus - Home Healthcare & Nursing",
    "phone": "2506586508",
    "website": "http://communitypluscare.ca2506586508",
    "postalCode": "V9C4A7",
    "chamberId": "saanich-peninsula-chamber"
  },
  {
    "name": "CONVERA FINANCIAL LTD",
    "phone": "",
    "website": "http://converafinancial.ca",
    "postalCode": "V8Z 0B9",
    "chamberId": "saanich-peninsula-chamber"
  },
  {
    "name": "Cordova Bay Optometry",
    "phone": "7785873937",
    "website": "http://www.cordovabayoptometry.ca778-587-3937",
    "postalCode": "V8Y2L3",
    "chamberId": "saanich-peninsula-chamber"
  },
  {
    "name": "Cosmos Energy Consulting IncSaanichtonBC",
    "phone": "7784262640",
    "website": "",
    "postalCode": "",
    "chamberId": "saanich-peninsula-chamber"
  },
  {
    "name": "Cosmos Energy Consulting Inc",
    "phone": "",
    "website": "",
    "postalCode": "",
    "chamberId": "saanich-peninsula-chamber"
  },
  {
    "name": "Country Bee Honey Farm",
    "phone": "2505800263",
    "website": "http://www.countrybeehoney.ca250",
    "postalCode": "V8M 1W8",
    "chamberId": "saanich-peninsula-chamber"
  },
  {
    "name": "Cube Project ManagementPO 612 SaanichtonSaanichtonBCV8M",
    "phone": "2508931011",
    "website": "",
    "postalCode": "",
    "chamberId": "saanich-peninsula-chamber"
  },
  {
    "name": "Cube Project Management",
    "phone": "",
    "website": "",
    "postalCode": "",
    "chamberId": "saanich-peninsula-chamber"
  },
  {
    "name": "Cultvest Apparel Ltd",
    "phone": "",
    "website": "",
    "postalCode": "V8W 2Z6",
    "chamberId": "saanich-peninsula-chamber"
  },
  {
    "name": "Davison & Co#101,",
    "phone": "2503889667",
    "website": "http://www.davisonandco.ca2503889667",
    "postalCode": "V8R 1B1",
    "chamberId": "saanich-peninsula-chamber"
  },
  {
    "name": "Davison & Co",
    "phone": "",
    "website": "",
    "postalCode": "",
    "chamberId": "saanich-peninsula-chamber"
  },
  {
    "name": "de Vine Vineyards6181B Old West Saanich RdSaanichton",
    "phone": "2506656983",
    "website": "http://www.devinevineyards.ca250-665-6983",
    "postalCode": "V8M 1W8",
    "chamberId": "saanich-peninsula-chamber"
  },
  {
    "name": "de Vine Vineyards",
    "phone": "",
    "website": "",
    "postalCode": "",
    "chamberId": "saanich-peninsula-chamber"
  },
  {
    "name": "Departures Travel",
    "phone": "2509999800",
    "website": "http://www.departurestravel.com250-999-9800",
    "postalCode": "V8L 1X5",
    "chamberId": "saanich-peninsula-chamber"
  },
  {
    "name": "Designer ShearsNorth SaanichBC",
    "phone": "2502168305",
    "website": "http://www.designershears.com250",
    "postalCode": "",
    "chamberId": "saanich-peninsula-chamber"
  },
  {
    "name": "Designer Shears",
    "phone": "",
    "website": "",
    "postalCode": "",
    "chamberId": "saanich-peninsula-chamber"
  },
  {
    "name": "Destination Greater VictoriaVictoriaBC",
    "phone": "2504146975",
    "website": "http://www.tourismvictoria.com250-414-6975",
    "postalCode": "",
    "chamberId": "saanich-peninsula-chamber"
  },
  {
    "name": "Destination Greater",
    "phone": "",
    "website": "",
    "postalCode": "",
    "chamberId": "saanich-peninsula-chamber"
  },
  {
    "name": "DFH Real Estate Ltd",
    "phone": "2506560131",
    "website": "",
    "postalCode": "V8L 0C3",
    "chamberId": "saanich-peninsula-chamber"
  },
  {
    "name": "District of",
    "phone": "2506524444",
    "website": "http://www.centralsaanich.ca250-652-4444",
    "postalCode": "V8M 2A9",
    "chamberId": "saanich-peninsula-chamber"
  },
  {
    "name": "Donovan's Piano Service",
    "phone": "2507446645",
    "website": "http://Donovanspianoservice.ca250-744-6645",
    "postalCode": "V8M 1L6",
    "chamberId": "saanich-peninsula-chamber"
  },
  {
    "name": "Dusanj & Wirk Chartered Professional Accountants",
    "phone": "2505088837",
    "website": "http://www.dusanjwirk.com/2505088837",
    "postalCode": "V8X 5J2",
    "chamberId": "saanich-peninsula-chamber"
  },
  {
    "name": "ECOSMART KITCHEN SOLUTIONS LTD",
    "phone": "",
    "website": "",
    "postalCode": "V8W 2Z6",
    "chamberId": "saanich-peninsula-chamber"
  },
  {
    "name": "ECOVENTRA DESIGNS LTD",
    "phone": "",
    "website": "",
    "postalCode": "V8W 2Z6",
    "chamberId": "saanich-peninsula-chamber"
  },
  {
    "name": "ElevateMaster Services Ltd",
    "phone": "",
    "website": "http://elevatemaster.ca",
    "postalCode": "V8W 2Z6",
    "chamberId": "saanich-peninsula-chamber"
  },
  {
    "name": "Industries Ltd.Unit 5 -",
    "phone": "2506565366",
    "website": "http://www.emcsindustries.com250-656-5366Empire",
    "postalCode": "V8L 5X8",
    "chamberId": "saanich-peninsula-chamber"
  },
  {
    "name": "HydrogenUnit 7 -",
    "phone": "",
    "website": "http://www.empirehydrogen.com778",
    "postalCode": "V8L 5X5",
    "chamberId": "saanich-peninsula-chamber"
  },
  {
    "name": "426 0911Everson Law104 -",
    "phone": "2506656869",
    "website": "http://www.eversonlaw.ca250-665-6869Expedia",
    "postalCode": "V8L 2X3",
    "chamberId": "saanich-peninsula-chamber"
  },
  {
    "name": "Cruise Ship Center - Sidney1 -",
    "phone": "2506565441",
    "website": "http://www.cruiseshipcenters.com/sidney250-656-5441FDB",
    "postalCode": "V8L 4M9",
    "chamberId": "saanich-peninsula-chamber"
  },
  {
    "name": "Flintstones Design and Build Ltd   -  Home Renovations and New Home Builds",
    "phone": "2508801188",
    "website": "http://www.flintstonesconstruction.com250-880-1188Fedril",
    "postalCode": "V8Z 1C7",
    "chamberId": "saanich-peninsula-chamber"
  },
  {
    "name": "Strategies Inc.SidneyBC",
    "phone": "8333337451",
    "website": "http://www.fedrilstrategies.ca1-833-333-7451Field",
    "postalCode": "",
    "chamberId": "saanich-peninsula-chamber"
  },
  {
    "name": "Five Farm Ltd",
    "phone": "2508888945",
    "website": "https://fieldfivefarm.ca/250-888-8945Finlayson",
    "postalCode": "V8M 1V8",
    "chamberId": "saanich-peninsula-chamber"
  },
  {
    "name": "Bonet Architecture4 -",
    "phone": "2506562224",
    "website": "http://www.finlaysonbonet.ca250-656-2224Fish",
    "postalCode": "V8M 2B4",
    "chamberId": "saanich-peninsula-chamber"
  },
  {
    "name": "O Chips",
    "phone": "",
    "website": "http://www.fishochips.ca(250",
    "postalCode": "V8L 4C3",
    "chamberId": "saanich-peninsula-chamber"
  },
  {
    "name": ") 656 4435Focus Hair Design#",
    "phone": "2506568122",
    "website": "http://www.focushair.ca/250-656-8122FORGE",
    "postalCode": "V8L 1Y1",
    "chamberId": "saanich-peninsula-chamber"
  },
  {
    "name": "Technical SolutionsVictoriaBC",
    "phone": "2508181670",
    "website": "https://forgetechnicalsolutions.ca250-818-1670Four",
    "postalCode": "",
    "chamberId": "saanich-peninsula-chamber"
  },
  {
    "name": "Quarters Meats",
    "phone": "2505087654",
    "website": "https://www.fourquartersmeats.com/250-508-7654Freedom",
    "postalCode": "V8L 5X6",
    "chamberId": "saanich-peninsula-chamber"
  },
  {
    "name": "Adventure Bus Society211,",
    "phone": "2505081808",
    "website": "http://FreedomAdventureBus.com250-508-1808Fuller",
    "postalCode": "V8M 0C3",
    "chamberId": "saanich-peninsula-chamber"
  },
  {
    "name": "Victoria Chamber of Commerce100 â€“",
    "phone": "2503837191",
    "website": "http://www.victoriachamber.ca250-383-7191Green",
    "postalCode": "V8W 1H8",
    "chamberId": "saanich-peninsula-chamber"
  },
  {
    "name": "Mountain Aviation1",
    "phone": "1250656059",
    "website": "https://www.greenmountainaviation.com/12506560597GREENWEAVE",
    "postalCode": "V8L 5Y1",
    "chamberId": "saanich-peninsula-chamber"
  },
  {
    "name": "MARKET LTD.VictoriaBC",
    "phone": "",
    "website": "http://greenweave.caGulf",
    "postalCode": "",
    "chamberId": "saanich-peninsula-chamber"
  },
  {
    "name": "Islands National Park Reserve, Parks Canada Agency",
    "phone": "2506344267",
    "website": "http://www.pc.gc.ca/gulf250-634-4267Habitat",
    "postalCode": "V8L 2P6",
    "chamberId": "saanich-peninsula-chamber"
  },
  {
    "name": "Gardencare SidneySidneyBC",
    "phone": "2508964252",
    "website": "http://habitatgardencare.com250-896-4252Harbord",
    "postalCode": "",
    "chamberId": "saanich-peninsula-chamber"
  },
  {
    "name": "Insurance Services103 -",
    "phone": "2503868045",
    "website": "http://www.harbordinsurance.com250-386-8045Harbour",
    "postalCode": "V8L 4M9",
    "chamberId": "saanich-peninsula-chamber"
  },
  {
    "name": "Haven Marina and Self -Storage",
    "phone": "2508931011",
    "website": "https://sidneymarina.com/2508931011Harbourview",
    "postalCode": "V8L 2P6",
    "chamberId": "saanich-peninsula-chamber"
  },
  {
    "name": "Tree ExpertsPO Box 234Brentwood BayBC",
    "phone": "2506529601",
    "website": "http://www.harbourviewtreeexperts.ca/250-652-9601Hear",
    "postalCode": "",
    "chamberId": "saanich-peninsula-chamber"
  },
  {
    "name": "Inc.7159A West Saanich RoadBrentwood Bay",
    "phone": "7784264876",
    "website": "https://hearinc.ca/778-426-4876Henley",
    "postalCode": "V8M 1P7",
    "chamberId": "saanich-peninsula-chamber"
  },
  {
    "name": "& Straub LLP201 -",
    "phone": "2506567231",
    "website": "http://www.henleystraub.com250-656-7231House",
    "postalCode": "V8L 4M9",
    "chamberId": "saanich-peninsula-chamber"
  },
  {
    "name": "of Lily Koi",
    "phone": "7783513018",
    "website": "http://www.houseoflilykoi.com778-351-3018Hughesman",
    "postalCode": "",
    "chamberId": "saanich-peninsula-chamber"
  },
  {
    "name": "Morris Liversedge, Chartered Professional Accountants",
    "phone": "2506563991",
    "website": "http://www.sidneyaccountants.ca250-656-3991IG",
    "postalCode": "V8L 3A4",
    "chamberId": "saanich-peninsula-chamber"
  },
  {
    "name": "Wealth Mangement - Victoria Metro",
    "phone": "2507279191",
    "website": "https://www.ig.ca/en250-727-9191IMEN",
    "postalCode": "V8Z 0B9",
    "chamberId": "saanich-peninsula-chamber"
  },
  {
    "name": "CORE SYSTEMS LTD",
    "phone": "2505076168",
    "website": "http://immrecruitment.com2505076168Iris",
    "postalCode": "V8W 2Z6",
    "chamberId": "saanich-peninsula-chamber"
  },
  {
    "name": "the Visual Group101 -",
    "phone": "2506561413",
    "website": "http://www.iris.ca250-656-1413Island",
    "postalCode": "V8L 1X5",
    "chamberId": "saanich-peninsula-chamber"
  },
  {
    "name": "Marble Ltd",
    "phone": "2506522680",
    "website": "http://www.islandmarble.bc.ca250-652-2680Island",
    "postalCode": "V8M 2A7",
    "chamberId": "saanich-peninsula-chamber"
  },
  {
    "name": "Savings a division of First West Credit Union1 -",
    "phone": "2505443550",
    "website": "http://www.islandsavings.ca250-544-3550Island",
    "postalCode": "V8M 1R1",
    "chamberId": "saanich-peninsula-chamber"
  },
  {
    "name": "Vegetable Co-Operative Association",
    "phone": "2505441242",
    "website": "http://ivca.ca250-544-1242Jametec",
    "postalCode": "V8M 1T7",
    "chamberId": "saanich-peninsula-chamber"
  },
  {
    "name": "Leslie Personal Real Estate Corporation",
    "phone": "2508834848",
    "website": "https://www.realestatevi.ca2508834848Jencam",
    "postalCode": "V8L 5N8",
    "chamberId": "saanich-peninsula-chamber"
  },
  {
    "name": "Transport",
    "phone": "2506558266",
    "website": "http://www.jencamtransport.com250-655-8266Jenna",
    "postalCode": "V8L 5X2",
    "chamberId": "saanich-peninsula-chamber"
  },
  {
    "name": "Turnbull14",
    "phone": "2508863150",
    "website": "http://jennaturnbull.ca250-886-3150JN",
    "postalCode": "V8L 1W3",
    "chamberId": "saanich-peninsula-chamber"
  },
  {
    "name": "Landscaping Ltd",
    "phone": "2502087852",
    "website": "http://jnlandscaping.ca2502087852Joe's",
    "postalCode": "V8L 5J7",
    "chamberId": "saanich-peninsula-chamber"
  },
  {
    "name": "Family Pharmacy7819D E Saanich Rd, Joe's Family PharmacySaanichton",
    "phone": "",
    "website": "http://www.joesfamilypharmacy.com778",
    "postalCode": "V8M 2B4",
    "chamberId": "saanich-peninsula-chamber"
  },
  {
    "name": "426 2420Jonathon Dyck200 -",
    "phone": "2503815532",
    "website": "http://victoriafoundation.bc.ca250-381-5532Kaemac",
    "postalCode": "V8W 1E2",
    "chamberId": "saanich-peninsula-chamber"
  },
  {
    "name": "Services Inc",
    "phone": "2503823111",
    "website": "http://www.keatingoutofschoolcare.com250-652-5546KPMG",
    "postalCode": "V8L 5V2",
    "chamberId": "saanich-peninsula-chamber"
  },
  {
    "name": "Mackenzie NutritionSidneyBC",
    "phone": "2505447005",
    "website": "http://www.kristinmackenzienutrition.ca250-544-7005L.A.",
    "postalCode": "",
    "chamberId": "saanich-peninsula-chamber"
  },
  {
    "name": "Limousines & Transportation ServicesVictoriaBC",
    "phone": "2503919000",
    "website": "http://www.lalimo.ca1-250-391-9000Legion",
    "postalCode": "",
    "chamberId": "saanich-peninsula-chamber"
  },
  {
    "name": "Manor",
    "phone": "2506523261",
    "website": "http://www.legionmanorvictoria.com2506523261Lime",
    "postalCode": "V8M 0A4",
    "chamberId": "saanich-peninsula-chamber"
  },
  {
    "name": "Tree Media",
    "phone": "2502166196",
    "website": "https://limetreemedia.ca/2502166196Little",
    "postalCode": "V8Z 0B9",
    "chamberId": "saanich-peninsula-chamber"
  },
  {
    "name": "Drum Consulting",
    "phone": "2503837008",
    "website": "http://www.littledrum.com250-383-7008LIVINGDESIGN",
    "postalCode": "V8S 3X1",
    "chamberId": "saanich-peninsula-chamber"
  },
  {
    "name": "CONSULTING INC.VictoriaBC",
    "phone": "",
    "website": "http://livingdesignco.caLML",
    "postalCode": "",
    "chamberId": "saanich-peninsula-chamber"
  },
  {
    "name": "Cleaning ServicesSidneyBC",
    "phone": "2504137313",
    "website": "http://www.lmlcleaning.ca2504137313LOTUSYNC",
    "postalCode": "",
    "chamberId": "saanich-peninsula-chamber"
  },
  {
    "name": "INNO TRADE LTD",
    "phone": "",
    "website": "http://lumivexenergy.caLUNVIX",
    "postalCode": "V8W 2Z6",
    "chamberId": "saanich-peninsula-chamber"
  },
  {
    "name": "SYSTEMS LTD",
    "phone": "2502179267",
    "website": "http://www.marks.com250-656-1970Martin",
    "postalCode": "V8W 2Z6",
    "chamberId": "saanich-peninsula-chamber"
  },
  {
    "name": "Woollard",
    "phone": "4376612394",
    "website": "http://none250-652-0577Mary",
    "postalCode": "V8L 3H6",
    "chamberId": "saanich-peninsula-chamber"
  },
  {
    "name": "Winspear Centre",
    "phone": "",
    "website": "http://www.marywinspear.ca250",
    "postalCode": "V8L 1W9",
    "chamberId": "saanich-peninsula-chamber"
  },
  {
    "name": "656 0275Mayflower Foods4",
    "phone": "2505440944",
    "website": "http://www.mayflowerfoods.ca250-544-0944McKimm",
    "postalCode": "V8M2C2",
    "chamberId": "saanich-peninsula-chamber"
  },
  {
    "name": "& LottUnit 7 -",
    "phone": "2506563961",
    "website": "http://www.mclott.com250-656-3961McTavish",
    "postalCode": "V8L 3C7",
    "chamberId": "saanich-peninsula-chamber"
  },
  {
    "name": "Academy of Art",
    "phone": "",
    "website": "http://www.mctavishacademy.ca778",
    "postalCode": "V8L 5T9",
    "chamberId": "saanich-peninsula-chamber"
  },
  {
    "name": "351 0088Medix Holdings Ltd22",
    "phone": "7783512630",
    "website": "http://www.medixbc.ca7783512630Meta",
    "postalCode": "V8L1T2",
    "chamberId": "saanich-peninsula-chamber"
  },
  {
    "name": "Bookkeeping Inc",
    "phone": "7787473500",
    "website": "http://www.metabookkeeping.com778-747-3500Meticulous",
    "postalCode": "V8L 1Y9",
    "chamberId": "saanich-peninsula-chamber"
  },
  {
    "name": "Detailing Inc",
    "phone": "2508844696",
    "website": "http://www.meticulousdetailing.ca2508844696Michell",
    "postalCode": "V8M 1W3",
    "chamberId": "saanich-peninsula-chamber"
  },
  {
    "name": "Excavating Ltd",
    "phone": "2506521640",
    "website": "http://www.michellexcavating.ca250-652-1640MOLD",
    "postalCode": "V8M 1W2",
    "chamberId": "saanich-peninsula-chamber"
  },
  {
    "name": "CORE INNOVATIONS LTD",
    "phone": "",
    "website": "http://www.mountnewtoncentre.org250",
    "postalCode": "V8Z 0B9",
    "chamberId": "saanich-peninsula-chamber"
  },
  {
    "name": "652 3432Mt Newton Floral1750 McTavish RoadNorth Saanich, BC,",
    "phone": "",
    "website": "http://www.mtnewton.ca250",
    "postalCode": "V8M 1S4",
    "chamberId": "saanich-peninsula-chamber"
  },
  {
    "name": "652 1683Muffet  and Louisa102 -",
    "phone": "",
    "website": "http://www.muffetandlouisa.com250",
    "postalCode": "V8L 1Y2",
    "chamberId": "saanich-peninsula-chamber"
  },
  {
    "name": "656 0011Mulberry SkincareNorth SaanichBC",
    "phone": "2508827254",
    "website": "http://www.mulberryskincare.ca2508827254National",
    "postalCode": "",
    "chamberId": "saanich-peninsula-chamber"
  },
  {
    "name": "Bank Financial Inc.205 -",
    "phone": "2506572200",
    "website": "http://www.nbfwm.ca250-657-2200North",
    "postalCode": "V8L 1Y3",
    "chamberId": "saanich-peninsula-chamber"
  },
  {
    "name": "Saanich Marina",
    "phone": "2506565558",
    "website": "http://northsaanichmarina.com250-656-5558North",
    "postalCode": "V8L 6B3",
    "chamberId": "saanich-peninsula-chamber"
  },
  {
    "name": "Saanich Plumbing Inc8508 Aldouce TerraceNorth Saanich",
    "phone": "2506564744",
    "website": "https://www.northsaanichplumbing.ca/250-656-4744Oakstead",
    "postalCode": "V8L 1L1",
    "chamberId": "saanich-peninsula-chamber"
  },
  {
    "name": "Tree and Property Care Inc",
    "phone": "",
    "website": "http://www.oakstead.ca250",
    "postalCode": "V8M1G8",
    "chamberId": "saanich-peninsula-chamber"
  },
  {
    "name": "652 9223Ocean Performance Technologies IncSaanichtonBC",
    "phone": "2508833313",
    "website": "http://www.oceanperformance.ca250-883-3313Ocean",
    "postalCode": "",
    "chamberId": "saanich-peninsula-chamber"
  },
  {
    "name": "Pier Medical Centre207 -",
    "phone": "",
    "website": "http://www.oceanpier.ca1",
    "postalCode": "V8L 1Y3",
    "chamberId": "saanich-peninsula-chamber"
  },
  {
    "name": "778 987 2324OMNILYX DIGITAL INTEGRATION LTD",
    "phone": "7789872324",
    "website": "http://omnilyx.caOne",
    "postalCode": "V8W 2Z6",
    "chamberId": "saanich-peninsula-chamber"
  },
  {
    "name": "Stop Furniture & Mattress Inc.#",
    "phone": "2506557467",
    "website": "http://onestopfurniture.ca250-655-7467OPTIMAX",
    "postalCode": "V8L 2X2",
    "chamberId": "saanich-peninsula-chamber"
  },
  {
    "name": "MANUFACTURING SOLUTIONS LTD",
    "phone": "",
    "website": "http://optimaxmanufacturing.caOrca",
    "postalCode": "V8Z 0B9",
    "chamberId": "saanich-peninsula-chamber"
  },
  {
    "name": "Spirit Adventures",
    "phone": "2503838411",
    "website": "https://orcaspirit.com/250-383-8411Pacific",
    "postalCode": "V8V 1V4",
    "chamberId": "saanich-peninsula-chamber"
  },
  {
    "name": "Coast Commercial Cleaning Inc",
    "phone": "2505442125",
    "website": "http://Www.pacificheatpumps.ca250",
    "postalCode": "V8M 1C9",
    "chamberId": "saanich-peninsula-chamber"
  },
  {
    "name": "655 4348Pacific Ridge Landscapes LtdPO Box 2151Sidney PO Main, BC,",
    "phone": "",
    "website": "http://www.pacificridgelandscapes.com778",
    "postalCode": "V8L 3S6",
    "chamberId": "saanich-peninsula-chamber"
  },
  {
    "name": "351 4120Pacifica Real Estate Inc.2451 Sidney AveSidney",
    "phone": "2509842310",
    "website": "http://www.pacificarealestate.ca250-984-2310Pacificheart",
    "postalCode": "V8L 1Y8",
    "chamberId": "saanich-peninsula-chamber"
  },
  {
    "name": "Childcare Inc",
    "phone": "2508961963",
    "website": "http://www.pacificheartchildcare.com2508961963Parkbridge",
    "postalCode": "V8L 5T9",
    "chamberId": "saanich-peninsula-chamber"
  },
  {
    "name": "Lifestyle (Oceanside) R.V. Resort",
    "phone": "2505440508",
    "website": "http://www.oceansideresortrv.com250-544-0508Patio",
    "postalCode": "V8M 2E9",
    "chamberId": "saanich-peninsula-chamber"
  },
  {
    "name": "Gardens",
    "phone": "2506528338",
    "website": "http://www.patiogardens.ca2506528338PBC",
    "postalCode": "V8M 1W8",
    "chamberId": "saanich-peninsula-chamber"
  },
  {
    "name": "SolutionsUnit 200B,",
    "phone": "",
    "website": "https://pbcsolutions.ca/(778",
    "postalCode": "V8M 2A6",
    "chamberId": "saanich-peninsula-chamber"
  },
  {
    "name": ") 400-2866Peace of Mind Home Inspections",
    "phone": "2505082828",
    "website": "http://Pmhi.ca250-508-2828Pemberton",
    "postalCode": "V8N 2C3",
    "chamberId": "saanich-peninsula-chamber"
  },
  {
    "name": "Holmes",
    "phone": "2506563486",
    "website": "http://www.pembertonholmes.com250-656-3486Peninsula",
    "postalCode": "V8X 2S9",
    "chamberId": "saanich-peninsula-chamber"
  },
  {
    "name": "Celebrations Society",
    "phone": "",
    "website": "http://www.peninsulacelebrations.orgPeninsula",
    "postalCode": "V8L 1W9",
    "chamberId": "saanich-peninsula-chamber"
  },
  {
    "name": "Co-opD",
    "phone": "2505442945",
    "website": "http://www.peninsulaco-op.com250-544-2945Peninsula",
    "postalCode": "V8M 2A5",
    "chamberId": "saanich-peninsula-chamber"
  },
  {
    "name": "Computer IT Solutions Ltd.SidneyBC",
    "phone": "2506863215",
    "website": "http://www.pcsit.com250-686-3215Peninsula",
    "postalCode": "",
    "chamberId": "saanich-peninsula-chamber"
  },
  {
    "name": "Family Chiropractic4-7816 E. Saanich RdSaanichton",
    "phone": "2506524347",
    "website": "http://www.peninsulachiro.ca2506524347Peninsula",
    "postalCode": "V8M 2B3",
    "chamberId": "saanich-peninsula-chamber"
  },
  {
    "name": "Mini Storage & Container Rentals Ltd",
    "phone": "2505446464",
    "website": "http://www.peninsulaministorage.com250-544-6464Peninsula",
    "postalCode": "V8M 2A4",
    "chamberId": "saanich-peninsula-chamber"
  },
  {
    "name": "News Review101A",
    "phone": "2506561151",
    "website": "http://peninsulanewsreview.com250.656.1151Peninsula",
    "postalCode": "V8L 3C6",
    "chamberId": "saanich-peninsula-chamber"
  },
  {
    "name": "Panthers Jr. Hockey Club LtdNorth SaanichBC",
    "phone": "2503280401",
    "website": "http://panthers-hockey.com250-328-0401Peninsula",
    "postalCode": "",
    "chamberId": "saanich-peninsula-chamber"
  },
  {
    "name": "Rock Products Ltd.VictoriaBC",
    "phone": "2506525064",
    "website": "http://none250-652-5064Peninsula",
    "postalCode": "",
    "chamberId": "saanich-peninsula-chamber"
  },
  {
    "name": "Streams SocietyNorth SaanichBC",
    "phone": "2503636480",
    "website": "http://peninsulastreams.ca250-363-6480Period",
    "postalCode": "",
    "chamberId": "saanich-peninsula-chamber"
  },
  {
    "name": "Fine Bindings",
    "phone": "7784335007",
    "website": "http://www.periodfinebindings.com778-433-5007Ping",
    "postalCode": "V8R 1E5",
    "chamberId": "saanich-peninsula-chamber"
  },
  {
    "name": "Digital Signal Processing Inc",
    "phone": "7783513377",
    "website": "https://www.pingdsp.com/778-351-3377Polaris",
    "postalCode": "V8L 5R7",
    "chamberId": "saanich-peninsula-chamber"
  },
  {
    "name": "Land Surveying Inc.Suite 138, 1834C Oak Bay AveVictoria",
    "phone": "2508826767",
    "website": "http://www.plsi.ca2508826767Powerhouse",
    "postalCode": "V8R 1C2",
    "chamberId": "saanich-peninsula-chamber"
  },
  {
    "name": "Precision6685B MIRAH RDCentral Saanich",
    "phone": "2506520400",
    "website": "http://www.princeofwhales.com250-383-4884Quality",
    "postalCode": "V8M 1Z4",
    "chamberId": "saanich-peninsula-chamber"
  },
  {
    "name": "Inn Waddling Dog",
    "phone": "2506521146",
    "website": "http://www.qualityinnvictoria.com250-652-1146",
    "postalCode": "V8M 2B8",
    "chamberId": "saanich-peninsula-chamber"
  },
  {
    "name": "x3QuestPath Solutions Ltd",
    "phone": "",
    "website": "http://www.questpathsolutions.comQuicksilver",
    "postalCode": "",
    "chamberId": "saanich-peninsula-chamber"
  },
  {
    "name": "Software Development Inc",
    "phone": "2506554868",
    "website": "http://Quicksilver.dev2506554868Rachel",
    "postalCode": "V8L3E1",
    "chamberId": "saanich-peninsula-chamber"
  },
  {
    "name": "Conconi",
    "phone": "2507091777",
    "website": "http://HFA.Scotiabank.com/rconconi2507091777Radar",
    "postalCode": "V8M1J1",
    "chamberId": "saanich-peninsula-chamber"
  },
  {
    "name": "Hill Website Design & Marketing",
    "phone": "2504776395",
    "website": "https://www.radarhill.com/250.477.6395Raincoast",
    "postalCode": "V9A 2P8",
    "chamberId": "saanich-peninsula-chamber"
  },
  {
    "name": "Conservation Foundation",
    "phone": "2506551229",
    "website": "http://www.raincoast.org250-655-1229RAYMONDCAM",
    "postalCode": "V8L 2P6",
    "chamberId": "saanich-peninsula-chamber"
  },
  {
    "name": "SMART SECURE SOLUTIONS LTD",
    "phone": "2509535609",
    "website": "http://www.raymondjames.ca/deborahreid/2506570702Rob",
    "postalCode": "V8Z 0B9",
    "chamberId": "saanich-peninsula-chamber"
  },
  {
    "name": "Botterell, MLA",
    "phone": "2506555600",
    "website": "http://www.mlabotterell.ca250-655-5600Rodco",
    "postalCode": "V8L 2Z3",
    "chamberId": "saanich-peninsula-chamber"
  },
  {
    "name": "Draperies & Interiors Ltd",
    "phone": "2506564642",
    "website": "http://www.rodcointeriors.com250-656-4642ROGCS",
    "postalCode": "V8L 5G2",
    "chamberId": "saanich-peninsula-chamber"
  },
  {
    "name": "CONSTRUCTION SERVICES",
    "phone": "2506346221",
    "website": "http://www.rogcs.ca2506346221Rotary",
    "postalCode": "V8Z 3G7",
    "chamberId": "saanich-peninsula-chamber"
  },
  {
    "name": "Club of Sidneyc/o",
    "phone": "2507279355",
    "website": "http://www.rotaryclubodsidney.org2507279355Rotary",
    "postalCode": "V8L 5L7",
    "chamberId": "saanich-peninsula-chamber"
  },
  {
    "name": "Club of Sidney by the SeaSidneyBC",
    "phone": "",
    "website": "https://rotaryclubofsidney.org/250",
    "postalCode": "",
    "chamberId": "saanich-peninsula-chamber"
  },
  {
    "name": "656 6789Royal BC Museum675-Belleville StreetVictoria",
    "phone": "2509208452",
    "website": "http://www.royalbcmuseum.bc.ca2509208452Saanich",
    "postalCode": "V8W 9W2",
    "chamberId": "saanich-peninsula-chamber"
  },
  {
    "name": "Peninsula Artifacts Society o/a Heritage Acres",
    "phone": "2506525522",
    "website": "https://heritageacresbc.com/2506525522Saanichton",
    "postalCode": "V8M 1W4",
    "chamberId": "saanich-peninsula-chamber"
  },
  {
    "name": "Law Group6",
    "phone": "1250544072",
    "website": "http://saanichtonlaw.com12505440727Saanichton",
    "postalCode": "",
    "chamberId": "saanich-peninsula-chamber"
  },
  {
    "name": "Village Veterinary Hospital7 -",
    "phone": "7783513030",
    "website": "https://svvh.ca/778-351-3030SAMWEST",
    "postalCode": "V8M 2B3",
    "chamberId": "saanich-peninsula-chamber"
  },
  {
    "name": "PREFAB SYSTEMS LTD",
    "phone": "3603789551",
    "website": "http://www.visitsanjuans.com360-378-9551SC",
    "postalCode": "V8Z 0B9",
    "chamberId": "saanich-peninsula-chamber"
  },
  {
    "name": "Henn CPA",
    "phone": "2506567284",
    "website": "http://www.schenncpa.ca2506567284Scotiabank103-5120",
    "postalCode": "V8L 5C5",
    "chamberId": "saanich-peninsula-chamber"
  },
  {
    "name": "Cordova Bay RdVictoria",
    "phone": "2502202828",
    "website": "http://Scotiabank.com/ca/en/personal.html250-220-2828Scotty",
    "postalCode": "V8Y 2K5",
    "chamberId": "saanich-peninsula-chamber"
  },
  {
    "name": "Manufacturing Ltd",
    "phone": "2506568102",
    "website": "http://www.scotty.com250-656-8102Sea",
    "postalCode": "V8L 5Z6",
    "chamberId": "saanich-peninsula-chamber"
  },
  {
    "name": "Cider Farm & Ciderhouse",
    "phone": "2505444824",
    "website": "http://www.seacider.ca250-544-4824",
    "postalCode": "V8M 1T7",
    "chamberId": "saanich-peninsula-chamber"
  },
  {
    "name": "EMCS Industries Ltd.Unit 5 -",
    "phone": "2506565366",
    "website": "http://www.emcsindustries.com250-656-5366",
    "postalCode": "V8L 5X8",
    "chamberId": "saanich-peninsula-chamber"
  },
  {
    "name": "EMCS Industries Ltd",
    "phone": "",
    "website": "",
    "postalCode": "",
    "chamberId": "saanich-peninsula-chamber"
  },
  {
    "name": "Empire HydrogenUnit 7 -",
    "phone": "7784260911",
    "website": "http://www.empirehydrogen.com778",
    "postalCode": "V8L 5X5",
    "chamberId": "saanich-peninsula-chamber"
  },
  {
    "name": "Empire Hydrogen",
    "phone": "",
    "website": "",
    "postalCode": "",
    "chamberId": "saanich-peninsula-chamber"
  },
  {
    "name": "Everson Law104 -",
    "phone": "2506656869",
    "website": "http://www.eversonlaw.ca250-665-6869",
    "postalCode": "V8L 2X3",
    "chamberId": "saanich-peninsula-chamber"
  },
  {
    "name": "Everson Law",
    "phone": "",
    "website": "",
    "postalCode": "",
    "chamberId": "saanich-peninsula-chamber"
  },
  {
    "name": "Expedia Cruise Ship Center - Sidney1 -",
    "phone": "2506565441",
    "website": "http://www.cruiseshipcenters.com/sidney250-656-5441",
    "postalCode": "V8L 4M9",
    "chamberId": "saanich-peninsula-chamber"
  },
  {
    "name": "Expedia Cruise Ship Center -",
    "phone": "",
    "website": "",
    "postalCode": "",
    "chamberId": "saanich-peninsula-chamber"
  },
  {
    "name": "FDB Flintstones Design and Build Ltd   -  Home Renovations and New Home Builds",
    "phone": "2508801188",
    "website": "http://www.flintstonesconstruction.com250-880-1188",
    "postalCode": "V8Z 1C7",
    "chamberId": "saanich-peninsula-chamber"
  },
  {
    "name": "Fedril Strategies Inc.SidneyBC",
    "phone": "8333337451",
    "website": "http://www.fedrilstrategies.ca1-833-333-7451",
    "postalCode": "",
    "chamberId": "saanich-peninsula-chamber"
  },
  {
    "name": "Fedril Strategies Inc",
    "phone": "",
    "website": "",
    "postalCode": "",
    "chamberId": "saanich-peninsula-chamber"
  },
  {
    "name": "Field Five Farm Ltd",
    "phone": "2508888945",
    "website": "https://fieldfivefarm.ca/250-888-8945",
    "postalCode": "V8M 1V8",
    "chamberId": "saanich-peninsula-chamber"
  },
  {
    "name": "Finlayson Bonet Architecture4 -",
    "phone": "2506562224",
    "website": "http://www.finlaysonbonet.ca250-656-2224",
    "postalCode": "V8M 2B4",
    "chamberId": "saanich-peninsula-chamber"
  },
  {
    "name": "Finlayson Bonet Architecture",
    "phone": "",
    "website": "",
    "postalCode": "",
    "chamberId": "saanich-peninsula-chamber"
  },
  {
    "name": "Fish O Chips",
    "phone": "2506564435",
    "website": "http://www.fishochips.ca(250",
    "postalCode": "V8L 4C3",
    "chamberId": "saanich-peninsula-chamber"
  },
  {
    "name": "Focus Hair Design#",
    "phone": "2506568122",
    "website": "http://www.focushair.ca/250-656-8122",
    "postalCode": "V8L 1Y1",
    "chamberId": "saanich-peninsula-chamber"
  },
  {
    "name": "FORGE Technical SolutionsVictoriaBC",
    "phone": "2508181670",
    "website": "https://forgetechnicalsolutions.ca250-818-1670",
    "postalCode": "",
    "chamberId": "saanich-peninsula-chamber"
  },
  {
    "name": "FORGE Technical Solutions",
    "phone": "",
    "website": "",
    "postalCode": "",
    "chamberId": "saanich-peninsula-chamber"
  },
  {
    "name": "Four Quarters Meats",
    "phone": "2505087654",
    "website": "https://www.fourquartersmeats.com/250-508-7654",
    "postalCode": "V8L 5X6",
    "chamberId": "saanich-peninsula-chamber"
  },
  {
    "name": "Freedom Adventure Bus Society211,",
    "phone": "2505081808",
    "website": "http://FreedomAdventureBus.com250-508-1808",
    "postalCode": "V8M 0C3",
    "chamberId": "saanich-peninsula-chamber"
  },
  {
    "name": "Freedom Adventure Bus Society",
    "phone": "",
    "website": "",
    "postalCode": "",
    "chamberId": "saanich-peninsula-chamber"
  },
  {
    "name": "Fuller Projects",
    "phone": "2508847646",
    "website": "",
    "postalCode": "V8L 1Y9",
    "chamberId": "saanich-peninsula-chamber"
  },
  {
    "name": "Gingerbread Preschool and Daycare Ltd",
    "phone": "2502166399",
    "website": "http://gingerbreadpd.com2502166399",
    "postalCode": "V8M 1G8",
    "chamberId": "saanich-peninsula-chamber"
  },
  {
    "name": "Greater Victoria Chamber of Commerce100 â€“",
    "phone": "2503837191",
    "website": "http://www.victoriachamber.ca250-383-7191",
    "postalCode": "V8W 1H8",
    "chamberId": "saanich-peninsula-chamber"
  },
  {
    "name": "Greater Victoria Chamber of Commerce",
    "phone": "",
    "website": "",
    "postalCode": "",
    "chamberId": "saanich-peninsula-chamber"
  },
  {
    "name": "Green Mountain Aviation1",
    "phone": "1250656059",
    "website": "https://www.greenmountainaviation.com/12506560597",
    "postalCode": "V8L 5Y1",
    "chamberId": "saanich-peninsula-chamber"
  },
  {
    "name": "Green Mountain Aviation",
    "phone": "",
    "website": "",
    "postalCode": "",
    "chamberId": "saanich-peninsula-chamber"
  },
  {
    "name": "GREENWEAVE MARKET LTD.VictoriaBC",
    "phone": "",
    "website": "http://greenweave.ca",
    "postalCode": "",
    "chamberId": "saanich-peninsula-chamber"
  },
  {
    "name": "GREENWEAVE MARKET LTD",
    "phone": "",
    "website": "",
    "postalCode": "",
    "chamberId": "saanich-peninsula-chamber"
  },
  {
    "name": "Gulf Islands National Park Reserve, Parks Canada Agency",
    "phone": "2506344267",
    "website": "http://www.pc.gc.ca/gulf250-634-4267",
    "postalCode": "V8L 2P6",
    "chamberId": "saanich-peninsula-chamber"
  },
  {
    "name": "Habitat Gardencare SidneySidneyBC",
    "phone": "2508964252",
    "website": "http://habitatgardencare.com250-896-4252",
    "postalCode": "",
    "chamberId": "saanich-peninsula-chamber"
  },
  {
    "name": "Habitat Gardencare",
    "phone": "",
    "website": "",
    "postalCode": "",
    "chamberId": "saanich-peninsula-chamber"
  },
  {
    "name": "Harbord Insurance Services103 -",
    "phone": "2503868045",
    "website": "http://www.harbordinsurance.com250-386-8045",
    "postalCode": "V8L 4M9",
    "chamberId": "saanich-peninsula-chamber"
  },
  {
    "name": "Harbord Insurance Services",
    "phone": "",
    "website": "",
    "postalCode": "",
    "chamberId": "saanich-peninsula-chamber"
  },
  {
    "name": "Harbour Haven Marina and Self -Storage",
    "phone": "2508931011",
    "website": "https://sidneymarina.com/2508931011",
    "postalCode": "V8L 2P6",
    "chamberId": "saanich-peninsula-chamber"
  },
  {
    "name": "Harbourview Tree ExpertsPO Box 234Brentwood BayBC",
    "phone": "2506529601",
    "website": "http://www.harbourviewtreeexperts.ca/250-652-9601",
    "postalCode": "",
    "chamberId": "saanich-peninsula-chamber"
  },
  {
    "name": "Harbourview Tree Experts",
    "phone": "",
    "website": "",
    "postalCode": "",
    "chamberId": "saanich-peninsula-chamber"
  },
  {
    "name": "Hear Inc.7159A West Saanich RoadBrentwood Bay",
    "phone": "7784264876",
    "website": "https://hearinc.ca/778-426-4876",
    "postalCode": "V8M 1P7",
    "chamberId": "saanich-peninsula-chamber"
  },
  {
    "name": "Hear Inc",
    "phone": "",
    "website": "",
    "postalCode": "",
    "chamberId": "saanich-peninsula-chamber"
  },
  {
    "name": "Henley & Straub LLP201 -",
    "phone": "2506567231",
    "website": "http://www.henleystraub.com250-656-7231",
    "postalCode": "V8L 4M9",
    "chamberId": "saanich-peninsula-chamber"
  },
  {
    "name": "Henley & Straub LLP",
    "phone": "",
    "website": "",
    "postalCode": "",
    "chamberId": "saanich-peninsula-chamber"
  },
  {
    "name": "House of Lily Koi",
    "phone": "7783513018",
    "website": "http://www.houseoflilykoi.com778-351-3018",
    "postalCode": "",
    "chamberId": "saanich-peninsula-chamber"
  },
  {
    "name": "Hughesman Morris Liversedge, Chartered Professional Accountants",
    "phone": "2506563991",
    "website": "http://www.sidneyaccountants.ca250-656-3991",
    "postalCode": "V8L 3A4",
    "chamberId": "saanich-peninsula-chamber"
  },
  {
    "name": "IG Wealth Mangement - Victoria Metro",
    "phone": "2507279191",
    "website": "https://www.ig.ca/en250-727-9191",
    "postalCode": "V8Z 0B9",
    "chamberId": "saanich-peninsula-chamber"
  },
  {
    "name": "IMEN CORE SYSTEMS LTD",
    "phone": "",
    "website": "",
    "postalCode": "V8W 2Z6",
    "chamberId": "saanich-peninsula-chamber"
  },
  {
    "name": "IMM Recruitment Ltd",
    "phone": "2505076168",
    "website": "http://immrecruitment.com2505076168",
    "postalCode": "V8W1B6",
    "chamberId": "saanich-peninsula-chamber"
  },
  {
    "name": "Iris the Visual Group101 -",
    "phone": "2506561413",
    "website": "http://www.iris.ca250-656-1413",
    "postalCode": "V8L 1X5",
    "chamberId": "saanich-peninsula-chamber"
  },
  {
    "name": "Iris the Visual Group",
    "phone": "",
    "website": "",
    "postalCode": "",
    "chamberId": "saanich-peninsula-chamber"
  },
  {
    "name": "Island Marble Ltd",
    "phone": "2506522680",
    "website": "http://www.islandmarble.bc.ca250-652-2680",
    "postalCode": "V8M 2A7",
    "chamberId": "saanich-peninsula-chamber"
  },
  {
    "name": "Island Savings a division of First West Credit Union1 -",
    "phone": "2505443550",
    "website": "http://www.islandsavings.ca250-544-3550",
    "postalCode": "V8M 1R1",
    "chamberId": "saanich-peninsula-chamber"
  },
  {
    "name": "Island Savings a division of First West Credit Union",
    "phone": "",
    "website": "",
    "postalCode": "",
    "chamberId": "saanich-peninsula-chamber"
  },
  {
    "name": "Island Vegetable Co-Operative Association",
    "phone": "2505441242",
    "website": "http://ivca.ca250-544-1242",
    "postalCode": "V8M 1T7",
    "chamberId": "saanich-peninsula-chamber"
  },
  {
    "name": "Jametec Inc",
    "phone": "2503616296",
    "website": "http://www.jametec.com2503616296",
    "postalCode": "V8L 1V6",
    "chamberId": "saanich-peninsula-chamber"
  },
  {
    "name": "Jason Leslie Personal Real Estate Corporation",
    "phone": "2508834848",
    "website": "https://www.realestatevi.ca2508834848",
    "postalCode": "V8L 5N8",
    "chamberId": "saanich-peninsula-chamber"
  },
  {
    "name": "Jencam Transport",
    "phone": "2506558266",
    "website": "http://www.jencamtransport.com250-655-8266",
    "postalCode": "V8L 5X2",
    "chamberId": "saanich-peninsula-chamber"
  },
  {
    "name": "Jenna Turnbull14",
    "phone": "2508863150",
    "website": "http://jennaturnbull.ca250-886-3150",
    "postalCode": "V8L 1W3",
    "chamberId": "saanich-peninsula-chamber"
  },
  {
    "name": "Jenna Turnbull",
    "phone": "",
    "website": "",
    "postalCode": "",
    "chamberId": "saanich-peninsula-chamber"
  },
  {
    "name": "JN Landscaping Ltd",
    "phone": "2502087852",
    "website": "http://jnlandscaping.ca2502087852",
    "postalCode": "V8L 5J7",
    "chamberId": "saanich-peninsula-chamber"
  },
  {
    "name": "Joe's Family Pharmacy7819D E Saanich Rd, Joe's Family PharmacySaanichton",
    "phone": "7784262420",
    "website": "http://www.joesfamilypharmacy.com778",
    "postalCode": "V8M 2B4",
    "chamberId": "saanich-peninsula-chamber"
  },
  {
    "name": "Joe's Family Pharmacy",
    "phone": "",
    "website": "",
    "postalCode": "",
    "chamberId": "saanich-peninsula-chamber"
  },
  {
    "name": "Jonathon Dyck200 -",
    "phone": "2503815532",
    "website": "http://victoriafoundation.bc.ca250-381-5532",
    "postalCode": "V8W 1E2",
    "chamberId": "saanich-peninsula-chamber"
  },
  {
    "name": "Jonathon Dyck",
    "phone": "",
    "website": "",
    "postalCode": "",
    "chamberId": "saanich-peninsula-chamber"
  },
  {
    "name": "Kaemac Services Inc",
    "phone": "2503823111",
    "website": "",
    "postalCode": "V8L 5V2",
    "chamberId": "saanich-peninsula-chamber"
  },
  {
    "name": "Keating Out of School Care Society",
    "phone": "2506525546",
    "website": "http://www.keatingoutofschoolcare.com250-652-5546",
    "postalCode": "V8Z 5V2",
    "chamberId": "saanich-peninsula-chamber"
  },
  {
    "name": "KPMG LLP",
    "phone": "2504803553",
    "website": "https://kpmg.com/ca/en/home.html2504803553",
    "postalCode": "V8W 3Y7",
    "chamberId": "saanich-peninsula-chamber"
  },
  {
    "name": "Kristin Mackenzie NutritionSidneyBC",
    "phone": "2505447005",
    "website": "http://www.kristinmackenzienutrition.ca250-544-7005",
    "postalCode": "",
    "chamberId": "saanich-peninsula-chamber"
  },
  {
    "name": "Kristin Mackenzie Nutrition",
    "phone": "",
    "website": "",
    "postalCode": "",
    "chamberId": "saanich-peninsula-chamber"
  },
  {
    "name": "L.A. Limousines & Transportation ServicesVictoriaBC",
    "phone": "2503919000",
    "website": "http://www.lalimo.ca1-250-391-9000",
    "postalCode": "",
    "chamberId": "saanich-peninsula-chamber"
  },
  {
    "name": "L.A. Limousines & Transportation Services",
    "phone": "",
    "website": "",
    "postalCode": "",
    "chamberId": "saanich-peninsula-chamber"
  },
  {
    "name": "Legion Manor",
    "phone": "2506523261",
    "website": "http://www.legionmanorvictoria.com2506523261",
    "postalCode": "V8M 0A4",
    "chamberId": "saanich-peninsula-chamber"
  },
  {
    "name": "Lime Tree Media",
    "phone": "2502166196",
    "website": "https://limetreemedia.ca/2502166196",
    "postalCode": "V8Z 0B9",
    "chamberId": "saanich-peninsula-chamber"
  },
  {
    "name": "Little Drum Consulting",
    "phone": "2503837008",
    "website": "http://www.littledrum.com250-383-7008",
    "postalCode": "V8S 3X1",
    "chamberId": "saanich-peninsula-chamber"
  },
  {
    "name": "LIVINGDESIGN CONSULTING INC.VictoriaBC",
    "phone": "",
    "website": "http://livingdesignco.ca",
    "postalCode": "",
    "chamberId": "saanich-peninsula-chamber"
  },
  {
    "name": "LIVINGDESIGN CONSULTING INC",
    "phone": "",
    "website": "",
    "postalCode": "",
    "chamberId": "saanich-peninsula-chamber"
  },
  {
    "name": "LML Cleaning ServicesSidneyBC",
    "phone": "2504137313",
    "website": "http://www.lmlcleaning.ca2504137313",
    "postalCode": "",
    "chamberId": "saanich-peninsula-chamber"
  },
  {
    "name": "LML Cleaning Services",
    "phone": "",
    "website": "",
    "postalCode": "",
    "chamberId": "saanich-peninsula-chamber"
  },
  {
    "name": "LOTUSYNC INNO TRADE LTD",
    "phone": "",
    "website": "",
    "postalCode": "V8W 2Z6",
    "chamberId": "saanich-peninsula-chamber"
  },
  {
    "name": "LUMIVEX ENERGY LTD",
    "phone": "",
    "website": "http://lumivexenergy.ca",
    "postalCode": "V8Z 0B9",
    "chamberId": "saanich-peninsula-chamber"
  },
  {
    "name": "LUNVIX SYSTEMS LTD",
    "phone": "",
    "website": "",
    "postalCode": "V8W 2Z6",
    "chamberId": "saanich-peninsula-chamber"
  },
  {
    "name": "Mark Brajer",
    "phone": "2502179267",
    "website": "",
    "postalCode": "V9B 0S9",
    "chamberId": "saanich-peninsula-chamber"
  },
  {
    "name": "Mark's1B",
    "phone": "2506561970",
    "website": "http://www.marks.com250-656-1970",
    "postalCode": "V8L 2X2",
    "chamberId": "saanich-peninsula-chamber"
  },
  {
    "name": "Mark's",
    "phone": "",
    "website": "",
    "postalCode": "",
    "chamberId": "saanich-peninsula-chamber"
  },
  {
    "name": "Martin Woollard",
    "phone": "4376612394",
    "website": "",
    "postalCode": "V8L 3H6",
    "chamberId": "saanich-peninsula-chamber"
  },
  {
    "name": "Martinez Veterinary Service Inc",
    "phone": "2506520577",
    "website": "http://none250-652-0577",
    "postalCode": "V8L 5T1",
    "chamberId": "saanich-peninsula-chamber"
  },
  {
    "name": "Mary Winspear Centre",
    "phone": "2506560275",
    "website": "http://www.marywinspear.ca250",
    "postalCode": "V8L 1W9",
    "chamberId": "saanich-peninsula-chamber"
  },
  {
    "name": "Mayflower Foods4",
    "phone": "2505440944",
    "website": "http://www.mayflowerfoods.ca250-544-0944",
    "postalCode": "V8M2C2",
    "chamberId": "saanich-peninsula-chamber"
  },
  {
    "name": "Mayflower Foods",
    "phone": "",
    "website": "",
    "postalCode": "",
    "chamberId": "saanich-peninsula-chamber"
  },
  {
    "name": "McKimm & LottUnit 7 -",
    "phone": "2506563961",
    "website": "http://www.mclott.com250-656-3961",
    "postalCode": "V8L 3C7",
    "chamberId": "saanich-peninsula-chamber"
  },
  {
    "name": "McKimm & Lott",
    "phone": "",
    "website": "",
    "postalCode": "",
    "chamberId": "saanich-peninsula-chamber"
  },
  {
    "name": "McTavish Academy of Art",
    "phone": "7783510088",
    "website": "http://www.mctavishacademy.ca778",
    "postalCode": "V8L 5T9",
    "chamberId": "saanich-peninsula-chamber"
  },
  {
    "name": "Medix Holdings Ltd22",
    "phone": "7783512630",
    "website": "http://www.medixbc.ca7783512630",
    "postalCode": "V8L1T2",
    "chamberId": "saanich-peninsula-chamber"
  },
  {
    "name": "Medix Holdings Ltd",
    "phone": "",
    "website": "",
    "postalCode": "",
    "chamberId": "saanich-peninsula-chamber"
  },
  {
    "name": "Meta Bookkeeping Inc",
    "phone": "7787473500",
    "website": "http://www.metabookkeeping.com778-747-3500",
    "postalCode": "V8L 1Y9",
    "chamberId": "saanich-peninsula-chamber"
  },
  {
    "name": "Meticulous Detailing Inc",
    "phone": "2508844696",
    "website": "http://www.meticulousdetailing.ca2508844696",
    "postalCode": "V8M 1W3",
    "chamberId": "saanich-peninsula-chamber"
  },
  {
    "name": "Michell Excavating Ltd",
    "phone": "2506521640",
    "website": "http://www.michellexcavating.ca250-652-1640",
    "postalCode": "V8M 1W2",
    "chamberId": "saanich-peninsula-chamber"
  },
  {
    "name": "MOLD CORE INNOVATIONS LTD",
    "phone": "",
    "website": "",
    "postalCode": "V8Z 0B9",
    "chamberId": "saanich-peninsula-chamber"
  },
  {
    "name": "Mount Newton Centre2158 Mt. Newton Cross RoadSaanichton",
    "phone": "2506523432",
    "website": "http://www.mountnewtoncentre.org250",
    "postalCode": "V8M 2B2",
    "chamberId": "saanich-peninsula-chamber"
  },
  {
    "name": "Mount Newton Centre",
    "phone": "",
    "website": "",
    "postalCode": "",
    "chamberId": "saanich-peninsula-chamber"
  },
  {
    "name": "Mt Newton Floral",
    "phone": "2506521683",
    "website": "http://www.mtnewton.ca250",
    "postalCode": "V8M 1S4",
    "chamberId": "saanich-peninsula-chamber"
  },
  {
    "name": "Muffet  and Louisa102 -",
    "phone": "2506560011",
    "website": "http://www.muffetandlouisa.com250",
    "postalCode": "V8L 1Y2",
    "chamberId": "saanich-peninsula-chamber"
  },
  {
    "name": "Muffet  and Louisa",
    "phone": "",
    "website": "",
    "postalCode": "",
    "chamberId": "saanich-peninsula-chamber"
  },
  {
    "name": "Mulberry SkincareNorth SaanichBC",
    "phone": "2508827254",
    "website": "http://www.mulberryskincare.ca2508827254",
    "postalCode": "",
    "chamberId": "saanich-peninsula-chamber"
  },
  {
    "name": "Mulberry Skincare",
    "phone": "",
    "website": "",
    "postalCode": "",
    "chamberId": "saanich-peninsula-chamber"
  },
  {
    "name": "National Bank Financial Inc.205 -",
    "phone": "2506572200",
    "website": "http://www.nbfwm.ca250-657-2200",
    "postalCode": "V8L 1Y3",
    "chamberId": "saanich-peninsula-chamber"
  },
  {
    "name": "National Bank Financial Inc",
    "phone": "",
    "website": "",
    "postalCode": "",
    "chamberId": "saanich-peninsula-chamber"
  },
  {
    "name": "North Saanich Marina",
    "phone": "2506565558",
    "website": "http://northsaanichmarina.com250-656-5558",
    "postalCode": "V8L 6B3",
    "chamberId": "saanich-peninsula-chamber"
  },
  {
    "name": "North Saanich Plumbing Inc8508 Aldouce TerraceNorth Saanich",
    "phone": "2506564744",
    "website": "https://www.northsaanichplumbing.ca/250-656-4744",
    "postalCode": "V8L 1L1",
    "chamberId": "saanich-peninsula-chamber"
  },
  {
    "name": "North Saanich Plumbing Inc",
    "phone": "",
    "website": "",
    "postalCode": "",
    "chamberId": "saanich-peninsula-chamber"
  },
  {
    "name": "Oakstead Tree and Property Care Inc",
    "phone": "2506529223",
    "website": "http://www.oakstead.ca250",
    "postalCode": "V8M1G8",
    "chamberId": "saanich-peninsula-chamber"
  },
  {
    "name": "Ocean Performance Technologies IncSaanichtonBC",
    "phone": "2508833313",
    "website": "http://www.oceanperformance.ca250-883-3313",
    "postalCode": "",
    "chamberId": "saanich-peninsula-chamber"
  },
  {
    "name": "Ocean Performance Technologies Inc",
    "phone": "",
    "website": "",
    "postalCode": "",
    "chamberId": "saanich-peninsula-chamber"
  },
  {
    "name": "Ocean Pier Medical Centre207 -",
    "phone": "7789872324",
    "website": "http://www.oceanpier.ca1",
    "postalCode": "V8L 1Y3",
    "chamberId": "saanich-peninsula-chamber"
  },
  {
    "name": "Ocean Pier Medical Centre",
    "phone": "",
    "website": "",
    "postalCode": "",
    "chamberId": "saanich-peninsula-chamber"
  },
  {
    "name": "OMNILYX DIGITAL INTEGRATION LTD",
    "phone": "",
    "website": "http://omnilyx.ca",
    "postalCode": "V8W 2Z6",
    "chamberId": "saanich-peninsula-chamber"
  },
  {
    "name": "One Stop Furniture & Mattress Inc.#",
    "phone": "2506557467",
    "website": "http://onestopfurniture.ca250-655-7467",
    "postalCode": "V8L 2X2",
    "chamberId": "saanich-peninsula-chamber"
  },
  {
    "name": "OPTIMAX MANUFACTURING SOLUTIONS LTD",
    "phone": "",
    "website": "http://optimaxmanufacturing.ca",
    "postalCode": "V8Z 0B9",
    "chamberId": "saanich-peninsula-chamber"
  },
  {
    "name": "Orca Spirit Adventures",
    "phone": "2503838411",
    "website": "https://orcaspirit.com/250-383-8411",
    "postalCode": "V8V 1V4",
    "chamberId": "saanich-peninsula-chamber"
  },
  {
    "name": "Pacific Coast Commercial Cleaning Inc",
    "phone": "2505442125",
    "website": "",
    "postalCode": "V8M 1C9",
    "chamberId": "saanich-peninsula-chamber"
  },
  {
    "name": "Pacific Heat Pumps",
    "phone": "2506554348",
    "website": "http://Www.pacificheatpumps.ca250",
    "postalCode": "V8L 2N4",
    "chamberId": "saanich-peninsula-chamber"
  },
  {
    "name": "Pacific Ridge Landscapes LtdPO Box 2151Sidney PO Main, BC,",
    "phone": "7783514120",
    "website": "http://www.pacificridgelandscapes.com778",
    "postalCode": "V8L 3S6",
    "chamberId": "saanich-peninsula-chamber"
  },
  {
    "name": "Pacific Ridge Landscapes Ltd",
    "phone": "",
    "website": "",
    "postalCode": "",
    "chamberId": "saanich-peninsula-chamber"
  },
  {
    "name": "Pacifica Real Estate Inc",
    "phone": "2509842310",
    "website": "http://www.pacificarealestate.ca250-984-2310",
    "postalCode": "V8L 1Y8",
    "chamberId": "saanich-peninsula-chamber"
  },
  {
    "name": "Pacificheart Childcare Inc",
    "phone": "2508961963",
    "website": "http://www.pacificheartchildcare.com2508961963",
    "postalCode": "V8L 5T9",
    "chamberId": "saanich-peninsula-chamber"
  },
  {
    "name": "Parkbridge Lifestyle (Oceanside) R.V. Resort",
    "phone": "2505440508",
    "website": "http://www.oceansideresortrv.com250-544-0508",
    "postalCode": "V8M 2E9",
    "chamberId": "saanich-peninsula-chamber"
  },
  {
    "name": "Patio Gardens",
    "phone": "2506528338",
    "website": "http://www.patiogardens.ca2506528338",
    "postalCode": "V8M 1W8",
    "chamberId": "saanich-peninsula-chamber"
  },
  {
    "name": "PBC SolutionsUnit 200B,",
    "phone": "7784002866",
    "website": "https://pbcsolutions.ca/(778",
    "postalCode": "V8M 2A6",
    "chamberId": "saanich-peninsula-chamber"
  },
  {
    "name": "PBC Solutions",
    "phone": "",
    "website": "",
    "postalCode": "",
    "chamberId": "saanich-peninsula-chamber"
  },
  {
    "name": "Peace of Mind Home Inspections",
    "phone": "2505082828",
    "website": "http://Pmhi.ca250-508-2828",
    "postalCode": "V8N 2C3",
    "chamberId": "saanich-peninsula-chamber"
  },
  {
    "name": "Pemberton Holmes",
    "phone": "2506563486",
    "website": "http://www.pembertonholmes.com250-656-3486",
    "postalCode": "V8X 2S9",
    "chamberId": "saanich-peninsula-chamber"
  },
  {
    "name": "Peninsula Celebrations Society",
    "phone": "",
    "website": "http://www.peninsulacelebrations.org",
    "postalCode": "V8L 1W9",
    "chamberId": "saanich-peninsula-chamber"
  },
  {
    "name": "Peninsula Co-opD",
    "phone": "2505442945",
    "website": "http://www.peninsulaco-op.com250-544-2945",
    "postalCode": "V8M 2A5",
    "chamberId": "saanich-peninsula-chamber"
  },
  {
    "name": "Peninsula Co-op",
    "phone": "",
    "website": "",
    "postalCode": "",
    "chamberId": "saanich-peninsula-chamber"
  },
  {
    "name": "Peninsula Computer IT Solutions Ltd.SidneyBC",
    "phone": "2506863215",
    "website": "http://www.pcsit.com250-686-3215",
    "postalCode": "",
    "chamberId": "saanich-peninsula-chamber"
  },
  {
    "name": "Peninsula Computer IT Solutions Ltd",
    "phone": "",
    "website": "",
    "postalCode": "",
    "chamberId": "saanich-peninsula-chamber"
  },
  {
    "name": "Peninsula Family Chiropractic4-7816 E. Saanich RdSaanichton",
    "phone": "2506524347",
    "website": "http://www.peninsulachiro.ca2506524347",
    "postalCode": "V8M 2B3",
    "chamberId": "saanich-peninsula-chamber"
  },
  {
    "name": "Peninsula Family Chiropractic",
    "phone": "",
    "website": "",
    "postalCode": "",
    "chamberId": "saanich-peninsula-chamber"
  },
  {
    "name": "Peninsula Mini Storage & Container Rentals Ltd",
    "phone": "2505446464",
    "website": "http://www.peninsulaministorage.com250-544-6464",
    "postalCode": "V8M 2A4",
    "chamberId": "saanich-peninsula-chamber"
  },
  {
    "name": "Peninsula News Review101A",
    "phone": "2506561151",
    "website": "http://peninsulanewsreview.com250.656.1151",
    "postalCode": "V8L 3C6",
    "chamberId": "saanich-peninsula-chamber"
  },
  {
    "name": "Peninsula News Review",
    "phone": "",
    "website": "",
    "postalCode": "",
    "chamberId": "saanich-peninsula-chamber"
  },
  {
    "name": "Peninsula Panthers Jr. Hockey Club LtdNorth SaanichBC",
    "phone": "2503280401",
    "website": "http://panthers-hockey.com250-328-0401",
    "postalCode": "",
    "chamberId": "saanich-peninsula-chamber"
  },
  {
    "name": "Peninsula Panthers Jr. Hockey Club Ltd",
    "phone": "",
    "website": "",
    "postalCode": "",
    "chamberId": "saanich-peninsula-chamber"
  },
  {
    "name": "Peninsula Rock Products Ltd.VictoriaBC",
    "phone": "2506525064",
    "website": "http://none250-652-5064",
    "postalCode": "",
    "chamberId": "saanich-peninsula-chamber"
  },
  {
    "name": "Peninsula Rock Products Ltd",
    "phone": "",
    "website": "",
    "postalCode": "",
    "chamberId": "saanich-peninsula-chamber"
  },
  {
    "name": "Peninsula Streams SocietyNorth SaanichBC",
    "phone": "2503636480",
    "website": "http://peninsulastreams.ca250-363-6480",
    "postalCode": "",
    "chamberId": "saanich-peninsula-chamber"
  },
  {
    "name": "Peninsula Streams Society",
    "phone": "",
    "website": "",
    "postalCode": "",
    "chamberId": "saanich-peninsula-chamber"
  },
  {
    "name": "Period Fine Bindings",
    "phone": "7784335007",
    "website": "http://www.periodfinebindings.com778-433-5007",
    "postalCode": "V8R 1E5",
    "chamberId": "saanich-peninsula-chamber"
  },
  {
    "name": "Ping Digital Signal Processing Inc",
    "phone": "7783513377",
    "website": "https://www.pingdsp.com/778-351-3377",
    "postalCode": "V8L 5R7",
    "chamberId": "saanich-peninsula-chamber"
  },
  {
    "name": "Polaris Land Surveying Inc.Suite 138, 1834C Oak Bay AveVictoria",
    "phone": "2508826767",
    "website": "http://www.plsi.ca2508826767",
    "postalCode": "V8R 1C2",
    "chamberId": "saanich-peninsula-chamber"
  },
  {
    "name": "Polaris Land Surveying Inc",
    "phone": "",
    "website": "",
    "postalCode": "",
    "chamberId": "saanich-peninsula-chamber"
  },
  {
    "name": "Powerhouse Precision6685B MIRAH RDCentral Saanich",
    "phone": "2506520400",
    "website": "",
    "postalCode": "V8M 1Z4",
    "chamberId": "saanich-peninsula-chamber"
  },
  {
    "name": "Powerhouse Precision",
    "phone": "",
    "website": "",
    "postalCode": "",
    "chamberId": "saanich-peninsula-chamber"
  },
  {
    "name": "Prince of Whales Whale Watching",
    "phone": "2503834884",
    "website": "http://www.princeofwhales.com250-383-4884",
    "postalCode": "V8W 1T3",
    "chamberId": "saanich-peninsula-chamber"
  },
  {
    "name": "Quality Inn Waddling Dog",
    "phone": "2506521146",
    "website": "http://www.qualityinnvictoria.com250-652-1146",
    "postalCode": "V8M 2B8",
    "chamberId": "saanich-peninsula-chamber"
  },
  {
    "name": "QuestPath Solutions Ltd",
    "phone": "",
    "website": "http://www.questpathsolutions.com",
    "postalCode": "",
    "chamberId": "saanich-peninsula-chamber"
  },
  {
    "name": "Quicksilver Software Development Inc",
    "phone": "2506554868",
    "website": "http://Quicksilver.dev2506554868",
    "postalCode": "V8L3E1",
    "chamberId": "saanich-peninsula-chamber"
  },
  {
    "name": "Rachel Conconi",
    "phone": "2507091777",
    "website": "http://HFA.Scotiabank.com/rconconi2507091777",
    "postalCode": "V8M1J1",
    "chamberId": "saanich-peninsula-chamber"
  },
  {
    "name": "Radar Hill Website Design & Marketing",
    "phone": "2504776395",
    "website": "https://www.radarhill.com/250.477.6395",
    "postalCode": "V9A 2P8",
    "chamberId": "saanich-peninsula-chamber"
  },
  {
    "name": "Raincoast Conservation Foundation",
    "phone": "2506551229",
    "website": "http://www.raincoast.org250-655-1229",
    "postalCode": "V8L 2P6",
    "chamberId": "saanich-peninsula-chamber"
  },
  {
    "name": "RAYMONDCAM SMART SECURE SOLUTIONS LTD",
    "phone": "",
    "website": "",
    "postalCode": "V8Z 0B9",
    "chamberId": "saanich-peninsula-chamber"
  },
  {
    "name": "RBC Gateway Village Branch",
    "phone": "2509535609",
    "website": "",
    "postalCode": "V8Z 0B9",
    "chamberId": "saanich-peninsula-chamber"
  },
  {
    "name": "Reg Mooney (Penta Resources Corporation)8607 SentinelNorth Saanich",
    "phone": "2508813831",
    "website": "",
    "postalCode": "V8L 4Z8",
    "chamberId": "saanich-peninsula-chamber"
  },
  {
    "name": "Reg Mooney (Penta Resources Corporation)",
    "phone": "",
    "website": "",
    "postalCode": "",
    "chamberId": "saanich-peninsula-chamber"
  },
  {
    "name": "Reid Wealth Management - Raymond JamesUnit 216,",
    "phone": "2506570702",
    "website": "http://www.raymondjames.ca/deborahreid/2506570702",
    "postalCode": "V8L 2X2",
    "chamberId": "saanich-peninsula-chamber"
  },
  {
    "name": "Reid Wealth Management - Raymond James",
    "phone": "",
    "website": "",
    "postalCode": "",
    "chamberId": "saanich-peninsula-chamber"
  },
  {
    "name": "Rob Botterell, MLA",
    "phone": "2506555600",
    "website": "http://www.mlabotterell.ca250-655-5600",
    "postalCode": "V8L 2Z3",
    "chamberId": "saanich-peninsula-chamber"
  },
  {
    "name": "Rodco Draperies & Interiors Ltd",
    "phone": "2506564642",
    "website": "http://www.rodcointeriors.com250-656-4642",
    "postalCode": "V8L 5G2",
    "chamberId": "saanich-peninsula-chamber"
  },
  {
    "name": "ROGCS CONSTRUCTION SERVICES",
    "phone": "2506346221",
    "website": "http://www.rogcs.ca2506346221",
    "postalCode": "V8Z 3G7",
    "chamberId": "saanich-peninsula-chamber"
  },
  {
    "name": "Rotary Club of Sidneyc/o",
    "phone": "2507279355",
    "website": "http://www.rotaryclubodsidney.org2507279355",
    "postalCode": "V8L 5L7",
    "chamberId": "saanich-peninsula-chamber"
  },
  {
    "name": "Rotary Club of",
    "phone": "",
    "website": "",
    "postalCode": "",
    "chamberId": "saanich-peninsula-chamber"
  },
  {
    "name": "Rotary Club of Sidney by the SeaSidneyBC",
    "phone": "2506566789",
    "website": "https://rotaryclubofsidney.org/250",
    "postalCode": "",
    "chamberId": "saanich-peninsula-chamber"
  },
  {
    "name": "Rotary Club of Sidney by the Sea",
    "phone": "",
    "website": "",
    "postalCode": "",
    "chamberId": "saanich-peninsula-chamber"
  },
  {
    "name": "Royal BC Museum675-Belleville StreetVictoria",
    "phone": "2509208452",
    "website": "http://www.royalbcmuseum.bc.ca2509208452",
    "postalCode": "V8W 9W2",
    "chamberId": "saanich-peninsula-chamber"
  },
  {
    "name": "Royal BC Museum",
    "phone": "",
    "website": "",
    "postalCode": "",
    "chamberId": "saanich-peninsula-chamber"
  },
  {
    "name": "Saanich Peninsula Artifacts Society o/a Heritage Acres",
    "phone": "2506525522",
    "website": "https://heritageacresbc.com/2506525522",
    "postalCode": "V8M 1W4",
    "chamberId": "saanich-peninsula-chamber"
  },
  {
    "name": "Saanichton Law Group6",
    "phone": "1250544072",
    "website": "http://saanichtonlaw.com12505440727",
    "postalCode": "",
    "chamberId": "saanich-peninsula-chamber"
  },
  {
    "name": "Saanichton Law Group",
    "phone": "",
    "website": "",
    "postalCode": "",
    "chamberId": "saanich-peninsula-chamber"
  },
  {
    "name": "Saanichton Village Veterinary Hospital7 -",
    "phone": "7783513030",
    "website": "https://svvh.ca/778-351-3030",
    "postalCode": "V8M 2B3",
    "chamberId": "saanich-peninsula-chamber"
  },
  {
    "name": "Saanichton Village Veterinary Hospital",
    "phone": "",
    "website": "",
    "postalCode": "",
    "chamberId": "saanich-peninsula-chamber"
  },
  {
    "name": "SAMWEST PREFAB SYSTEMS LTD",
    "phone": "",
    "website": "",
    "postalCode": "V8Z 0B9",
    "chamberId": "saanich-peninsula-chamber"
  },
  {
    "name": "San Juan Islands Visitors Bureau211 -",
    "phone": "3603789551",
    "website": "http://www.visitsanjuans.com360-378-9551",
    "postalCode": "",
    "chamberId": "saanich-peninsula-chamber"
  },
  {
    "name": "San Juan Islands Visitors Bureau",
    "phone": "",
    "website": "",
    "postalCode": "",
    "chamberId": "saanich-peninsula-chamber"
  },
  {
    "name": "SC Henn CPA",
    "phone": "2506567284",
    "website": "http://www.schenncpa.ca2506567284",
    "postalCode": "V8L 5C5",
    "chamberId": "saanich-peninsula-chamber"
  },
  {
    "name": "Scotiabank",
    "phone": "2502202828",
    "website": "http://Scotiabank.com/ca/en/personal.html250-220-2828",
    "postalCode": "V8Y 2K5",
    "chamberId": "saanich-peninsula-chamber"
  },
  {
    "name": "Scotty Manufacturing Ltd",
    "phone": "2506568102",
    "website": "http://www.scotty.com250-656-8102",
    "postalCode": "V8L 5Z6",
    "chamberId": "saanich-peninsula-chamber"
  },
  {
    "name": "Sea Cider Farm & Ciderhouse",
    "phone": "2505444824",
    "website": "http://www.seacider.ca250-544-4824",
    "postalCode": "V8M 1T7",
    "chamberId": "saanich-peninsula-chamber"
  }
]